ROWNUM;NAME;ADDRESS;X;Y;NAPRAVLENIE;USL_SPEED;GLOBALID;
1;"Комплекс фото-видеофиксации нарушений ПДД";"1-й Вышеславцев переулок, д.8";"37.605547";"55.791261";"в центр";"Проезд грузового транспорта";"87476396";
2;"Комплекс фото-видеофиксации нарушений ПДД";"1-й Кожуховский переулок, д.5/7";"37.660492";"55.705997";"в центр";"Проезд грузового транспорта";"87476397";
3;"Комплекс фото-видеофиксации нарушений ПДД";"1-й Новый переулок, д.5, стр.4, по улице Нижняя Красносельская";"37.667997";"55.778317";"в центр";"Проезд грузового транспорта";"87476398";
4;"Комплекс фото-видеофиксации нарушений ПДД";"1-я Дубровская улица, д.2б, стр.1";"37.668127";"55.729461";"из центра";"Контроль база";"87476399";
5;"Комплекс фото-видеофиксации нарушений ПДД";"улица 26-ти Бакинских Комиссаров, д.3, корп.1";"37.489245";"55.65846";"к Ленинскому пр-ту";"Контроль база";"87476400";
6;"Комплекс фото-видеофиксации нарушений ПДД";"улица Cвободы - МКАД";"37.424667";"55.875696";"внутренняя сторона МКАД";"Контроль база+скорость";"87482402";
7;"Комплекс фото-видеофиксации нарушений ПДД";"Автозаводская улица, д.17";"37.654242";"55.704878";"в центр";"Проезд грузового транспорта";"87482404";
8;"Комплекс фото-видеофиксации нарушений ПДД";"Автозаводская улица, д.2";"37.663686";"55.710139";"из центра";"Проезд грузового транспорта";"87482405";
9;"Комплекс фото-видеофиксации нарушений ПДД";"Автомобильный проезд, д.10";"37.710102";"55.725725";"в центр";"Проезд грузового транспорта";"87482406";
10;"Комплекс фото-видеофиксации нарушений ПДД";"улица Айвазовского, д.2, МГТ № 342";"37.541558";"55.618839";"из центра";"Выделенная полоса";"87482407";
11;"Комплекс фото-видеофиксации нарушений ПДД";"улица Айвазовского, д.5, корп.1, МГТ № 355";"37.540767";"55.615553";"в центр";"Выделенная полоса";"87482408";
12;"Комплекс фото-видеофиксации нарушений ПДД";"набережная Академика Туполева, д.15";"37.679306";"55.759353";"в центр";"Проезд грузового транспорта";"87482409";
13;"Комплекс фото-видеофиксации нарушений ПДД";"Алтуфьевское шоссе - МКАД";"37.591829";"55.908728";"съезд на внутреннее кольцо МКАД";"Контроль база";"87482410";
14;"Комплекс фото-видеофиксации нарушений ПДД";"Алтуфьевское шоссе - МКАД";"37.590727";"55.913223";"из центра";"Контроль база";"87482411";
15;"Комплекс фото-видеофиксации нарушений ПДД";"Алтуфьевское шоссе - МКАД";"37.586382";"55.910343";"внутренняя сторона МКАД";"Контроль база+скорость";"87482412";
16;"Комплекс фото-видеофиксации нарушений ПДД";"Алтуфьевское шоссе - МКАД";"37.587162";"55.907829";"в центр";"Контроль база";"87482413";
17;"Комплекс фото-видеофиксации нарушений ПДД";"Алтуфьевское шоссе, д.13, корп.2";"37.584403";"55.853386";"в центр";"Выделенная полоса";"87482414";
18;"Комплекс фото-видеофиксации нарушений ПДД";"Алтуфьевское шоссе, д.22 Б";"37.5846";"55.860311";"из центра";"Выделенная полоса";"87482415";
19;"Комплекс фото-видеофиксации нарушений ПДД";"Алтуфьевское шоссе, д.28";"37.584497";"55.865364";"из центра";"Выделенная полоса";"87482416";
20;"Комплекс фото-видеофиксации нарушений ПДД";"Алтуфьевское шоссе, д.29";"37.584167";"55.858547";"в центр";"Выделенная полоса";"87482417";
21;"Комплекс фото-видеофиксации нарушений ПДД";"Алтуфьевское шоссе, д.33, стр.1";"37.583998";"55.864222";"в центр";"Выделенная полоса";"87482418";
22;"Комплекс фото-видеофиксации нарушений ПДД";"Алтуфьевское шоссе, д.64";"37.586811";"55.885797";"из центра";"Выделенная полоса";"87482419";
23;"Комплекс фото-видеофиксации нарушений ПДД";"Алтуфьевское шоссе, д.78";"37.587007";"55.892515";"из центра";"Выделенная полоса";"87482420";
24;"Комплекс фото-видеофиксации нарушений ПДД";"Алтуфьевское шоссе, д.86 А";"37.587128";"55.897614";"из центра";"Выделенная полоса";"87482421";
25;"Комплекс фото-видеофиксации нарушений ПДД";"Алтуфьевское шоссе, д.87";"37.586523";"55.893062";"в центр";"Выделенная полоса";"87482422";
26;"Комплекс фото-видеофиксации нарушений ПДД";"Алтуфьевское шоссе, д.93";"37.586828";"55.898972";"в центр";"Выделенная полоса";"87482423";
27;"Комплекс фото-видеофиксации нарушений ПДД";"Алтуфьевское шоссе, д.96";"37.587339";"55.902008";"из центра";"Выделенная полоса";"87482424";
28;"Комплекс фото-видеофиксации нарушений ПДД";"Алтуфьевское шоссе, д.97";"37.586764";"55.902561";"в центр";"Выделенная полоса";"87482425";
29;"Комплекс фото-видеофиксации нарушений ПДД";"Алтуфьевское шоссе, д.75 Б";"37.586575";"55.878765";"из центра";"Выделенная полоса";"87482426";
30;"Комплекс фото-видеофиксации нарушений ПДД";"Аминьевское шоссе, д.3, корп.1, по улице Матвеевской, к Рублевскому шоссе";"37.45855";"55.702089";"к Рублевскому ш.";"Выделенная полоса";"87482427";
31;"Комплекс фото-видеофиксации нарушений ПДД";"Аминьевское шоссе, д.14, корп.1";"37.455575";"55.706653";"от Рублевского ш.";"Выделенная полоса";"87482428";
32;"Комплекс фото-видеофиксации нарушений ПДД";"проспект Андропова, д.38";"37.662134";"55.673259";"из центра";"Скорость";"87482429";
33;"Комплекс фото-видеофиксации нарушений ПДД";"проспект Андропова, МГТ № 114";"37.664325";"55.682324";"из центра";"Выделенная полоса+скорость";"87482430";
34;"Комплекс фото-видеофиксации нарушений ПДД";"проспект Андропова, МГТ № 215";"37.657286";"55.663114";"в центр";"Выделенная полоса";"87482431";
35;"Комплекс фото-видеофиксации нарушений ПДД";"проспект Андропова, МГТ № 59";"37.667739";"55.704414";"в центр";"Выделенная полоса";"87482432";
36;"Комплекс фото-видеофиксации нарушений ПДД";"проспект Андропова, МГТ № 67";"37.665847";"55.68947";"в центр";"Выделенная полоса+скорость";"87482433";
37;"Комплекс фото-видеофиксации нарушений ПДД";"проспект Андропова, д.10, по ул. Трофимова";"37.667267";"55.702131";"из центра";"Выделенная полоса";"87482434";
38;"Комплекс фото-видеофиксации нарушений ПДД";"проспект Андропова, д.8, МГТ № 37";"37.666625";"55.695641";"в центр";"Выделенная полоса";"87482435";
39;"Комплекс фото-видеофиксации нарушений ПДД";"проспект Андропова, у д.2";"37.666933";"55.707328";"из центра";"Выделенная полоса";"87482436";
40;"Комплекс фото-видеофиксации нарушений ПДД";"Большая Дорогомиловская улица, д.7";"37.556477";"55.746234";"в центр";"Выделенная полоса";"87482437";
41;"Комплекс фото-видеофиксации нарушений ПДД";"Большой Каменный мост, д.2, стр.2, по улице Серафимовича";"37.613582";"55.744942";"из центра";"Скорость";"87482438";
42;"Комплекс фото-видеофиксации нарушений ПДД";"Большой Москворецкий мост, опора МГО б/н.";"37.624445";"55.748444";"к Софийской наб.";"Скорость";"87482439";
43;"Комплекс фото-видеофиксации нарушений ПДД";"Большой Москворецкий мост, опора МГО б/н.";"37.624563";"55.749434";"к Москворецкой наб.";"Скорость";"87482440";
44;"Комплекс фото-видеофиксации нарушений ПДД";"Большая Переяславская улица, д.19";"37.640457";"55.78984";"в центр";"Проезд грузового транспорта";"87482441";
45;"Комплекс фото-видеофиксации нарушений ПДД";"Большая Переяславская улица, д.50";"37.640443";"55.787283";"к ТТК";"Контроль база";"87482442";
46;"Комплекс фото-видеофиксации нарушений ПДД";"Большая Садовая улица, д.5";"37.593931";"55.768173";"внешняя сторона Садовое кольцо";"Скорость";"87482443";
47;"Комплекс фото-видеофиксации нарушений ПДД";"Большая Тульская улица, д.10";"37.620734";"55.706921";"из центра";"Скорость";"87482444";
48;"Комплекс фото-видеофиксации нарушений ПДД";"Большой Устьинский мост, опора МГО б/н.";"37.639618";"55.747638";"к Москворецкой наб.";"Скорость";"87482445";
49;"Комплекс фото-видеофиксации нарушений ПДД";"Большая Филевская улица, Шелепихинский мост";"37.512439";"55.752379";"из центра";"Скорость";"87482446";
50;"Комплекс фото-видеофиксации нарушений ПДД";"Большая Черкизовская улица, д.17";"37.734756";"55.799406";"в центр";"Выделенная полоса";"87482447";
51;"Комплекс фото-видеофиксации нарушений ПДД";"Большая Черкизовская улица, д.24, корп.1";"37.735514";"55.799392";"из центра";"Выделенная полоса";"87482448";
52;"Комплекс фото-видеофиксации нарушений ПДД";"улица Большая Якиманка, д.31";"37.615237";"55.738113";"в центр";"Скорость";"87482449";
53;"Комплекс фото-видеофиксации нарушений ПДД";"Бакинская улица, д.31";"37.658978";"55.615983";"в центр";"Выделенная полоса";"87482450";
54;"Комплекс фото-видеофиксации нарушений ПДД";"Бакинская улица, д.25";"37.657425";"55.617967";"из центра";"Выделенная полоса";"87482451";
55;"Комплекс фото-видеофиксации нарушений ПДД";"Бакунинская улица, д.100";"37.694876";"55.780672";"к ж/д мосту";"Контроль база";"87482452";
56;"Комплекс фото-видеофиксации нарушений ПДД";"Бакунинская улица, д.15, стр.1";"37.682217";"55.774392";"в центр";"Проезд грузового транспорта";"87482453";
57;"Комплекс фото-видеофиксации нарушений ПДД";"Балаклавский проспект, д.3";"37.611658";"55.640786";"к Варшавскому ш.";"Выделенная полоса";"87482454";
58;"Комплекс фото-видеофиксации нарушений ПДД";"Балаклавский проспект, д.34, корп.3";"37.578787";"55.645869";"от Варшавского ш.";"Выделенная полоса";"87482455";
59;"Комплекс фото-видеофиксации нарушений ПДД";"Балаклавский проспект, д.2, корп.2";"37.618194";"55.640392";"к Варшавскому ш.";"Выделенная полоса";"87482456";
60;"Комплекс фото-видеофиксации нарушений ПДД";"Батайская улица, опора МГО № 8";"37.731805";"55.68181";"к Северному путепроводу";"Контроль база";"87482457";
61;"Комплекс фото-видеофиксации нарушений ПДД";"Башиловская улица, д.27";"37.573141";"55.80509";"к ТТК";"Контроль база";"87482458";
62;"Комплекс фото-видеофиксации нарушений ПДД";"Бережковская набережная, д.2";"37.5701";"55.742472";"из центра";"Выделенная полоса";"87482459";
63;"Комплекс фото-видеофиксации нарушений ПДД";"Бибиревская улица, д.1";"37.589893";"55.879482";"к Алтуфьевскому ш.";"Контроль база";"87482461";
64;"Комплекс фото-видеофиксации нарушений ПДД";"Боенский проезд, д.9";"37.69837";"55.733495";"в центр";"Проезд грузового транспорта";"87482462";
65;"Комплекс фото-видеофиксации нарушений ПДД";"улица Бориса Галушкина, перед ж/д мостом, МГО № 60";"37.66601";"55.820632";"от Мира пр-та";"Контроль база";"87482463";
66;"Комплекс фото-видеофиксации нарушений ПДД";"улица Борисовские Пруды, д.1";"37.70576";"55.63587";"к Каширскому ш.";"Скорость";"87482464";
67;"Комплекс фото-видеофиксации нарушений ПДД";"улица Борисовские Пруды, д.13, корп.1";"37.719081";"55.635471";"к Каширскому ш.";"Скорость";"87482466";
68;"Комплекс фото-видеофиксации нарушений ПДД";"улица Борисовские Пруды, д.29 А";"37.726879";"55.635383";"к Каширскому ш.";"Скорость";"87482467";
69;"Комплекс фото-видеофиксации нарушений ПДД";"Боровское шоссе - МКАД";"37.427116";"55.66126";"из центра";"Контроль база";"87482470";
70;"Комплекс фото-видеофиксации нарушений ПДД";"Боровское шоссе - МКАД";"37.392702";"55.852462";"в центр";"Контроль база";"87482471";
71;"Комплекс фото-видеофиксации нарушений ПДД";"Боровское шоссе - МКАД";"37.435569";"55.658952";"внутренняя сторона МКАД";"Контроль база+скорость";"87482472";
72;"Комплекс фото-видеофиксации нарушений ПДД";"Боровское шоссе - МКАД";"37.430167";"55.665177";"внутренняя сторона МКАД";"Контроль база+скорость";"87482473";
73;"Комплекс фото-видеофиксации нарушений ПДД";"Боровское шоссе, д.2, стр.2 А";"37.422667";"55.661036";"из центра";"Выделенная полоса+скорость";"87482474";
74;"Комплекс фото-видеофиксации нарушений ПДД";"Боровское шоссе, д.25";"37.366389";"55.646114";"в центр";"Выделенная полоса+скорость";"87482475";
75;"Комплекс фото-видеофиксации нарушений ПДД";"Боровское шоссе, д.39";"37.356881";"55.641786";"в центр";"Выделенная полоса+скорость";"87482476";
76;"Комплекс фото-видеофиксации нарушений ПДД";"Боровское шоссе, д.19, по улице Богданова";"37.392667";"55.654167";"в центр";"Выделенная полоса";"87482477";
77;"Комплекс фото-видеофиксации нарушений ПДД";"Боровское шоссе, д.2, стр.2А, МГО № 14";"37.423369";"55.660783";"в центр";"Выделенная полоса+скорость";"87482478";
78;"Комплекс фото-видеофиксации нарушений ПДД";"Боровское шоссе, д.25";"37.365869";"55.646339";"из центра";"Выделенная полоса+скорость";"87482479";
79;"Комплекс фото-видеофиксации нарушений ПДД";"Боровское шоссе, д.3, по Боровскому проезду";"37.392742";"55.654006";"из центра";"Выделенная полоса+скорость";"87482480";
80;"Комплекс фото-видеофиксации нарушений ПДД";"Боровское шоссе, д.6";"37.402228";"55.658208";"в центр";"Выделенная полоса";"87482481";
81;"Комплекс фото-видеофиксации нарушений ПДД";"Боровское шоссе, перед поворотом на улицу Федосьино";"37.342764";"55.634125";"из центра";"Контроль база";"87482482";
82;"Комплекс фото-видеофиксации нарушений ПДД";"Бородинский мост";"37.576766";"55.745316";"в центр";"Скорость";"87482483";
83;"Комплекс фото-видеофиксации нарушений ПДД";"Ботаническая улица, д.39";"37.584611";"55.845278";"в центр";"Скорость";"87482484";
84;"Комплекс фото-видеофиксации нарушений ПДД";"улица Бунинская Аллея, д.84, по улице Южнобутовская";"37.516001";"55.534569";"к Южнобутовской улица";"Скорость";"87482485";
85;"Комплекс фото-видеофиксации нарушений ПДД";"улица Бутырский Вал, д.68/70, стр.2";"37.588185";"55.789418";"в центр";"Проезд грузового транспорта";"87482486";
86;"Комплекс фото-видеофиксации нарушений ПДД";"Ваганьковский путепровод, опора МГТ № 4805, д.2Б по Беговой улице";"37.554347";"55.774358";"из центра";"Контроль база";"87482487";
87;"Комплекс фото-видеофиксации нарушений ПДД";"Варшавское шоссе - МКАД";"37.59772";"55.567394";"из центра";"Контроль база";"87482488";
88;"Комплекс фото-видеофиксации нарушений ПДД";"Варшавское шоссе - МКАД";"37.596625";"55.579662";"в центр";"Контроль база+скорость";"87482489";
89;"Комплекс фото-видеофиксации нарушений ПДД";"Варшавское шоссе - МКАД";"37.597527";"55.572209";"из центра";"Контроль база+скорость";"87482490";
90;"Комплекс фото-видеофиксации нарушений ПДД";"Варшавское шоссе - МКАД";"37.611845";"55.574929";"внутренняя сторона МКАД";"Контроль база+скорость";"87482491";
91;"Комплекс фото-видеофиксации нарушений ПДД";"Варшавское шоссе - МКАД";"37.589828";"55.57696";"внутренняя сторона МКАД";"Контроль база+скорость";"87482492";
92;"Комплекс фото-видеофиксации нарушений ПДД";"Варшавское шоссе - МКАД Дублер - Дорожная улица";"37.608178";"55.577134";"в центр";"Контроль база+скорость";"87482493";
93;"Комплекс фото-видеофиксации нарушений ПДД";"Варшавское шоссе, 3-я опора МГО до разворота у 1-ого мкр-на Щербинку";"37.577669";"55.521993";"из центра";"Выделенная полоса";"87482494";
94;"Комплекс фото-видеофиксации нарушений ПДД";"Варшавское шоссе, опора МГО № 5";"37.57783";"55.521042";"в центр";"Выделенная полоса";"87482495";
95;"Комплекс фото-видеофиксации нарушений ПДД";"Велозаводская улица, опора МГТ № 33";"37.666578";"55.709253";"в центр";"Выделенная полоса";"87482496";
96;"Комплекс фото-видеофиксации нарушений ПДД";"улица Верземнека, д.4";"37.628942";"55.790883";"в центр";"Проезд грузового транспорта";"87482497";
97;"Комплекс фото-видеофиксации нарушений ПДД";"проспект Вернадского, д.117 А";"37.481696";"55.659578";"в центр";"Выделенная полоса";"87482498";
98;"Комплекс фото-видеофиксации нарушений ПДД";"проспект Вернадского, д.7";"37.538988";"55.69514";"в центр";"Выделенная полоса";"87482499";
99;"Комплекс фото-видеофиксации нарушений ПДД";"проспект Вернадского, д.87";"37.493647";"55.669586";"в центр";"Выделенная полоса";"87482500";
100;"Комплекс фото-видеофиксации нарушений ПДД";"проспект Вернадского, МГТ № 53";"37.545153";"55.699703";"в центр";"Выделенная полоса";"87482501";
101;"Комплекс фото-видеофиксации нарушений ПДД";"проспект Вернадского, МГТ № 54";"37.543883";"55.698858";"из центра";"Выделенная полоса";"87482502";
102;"Комплекс фото-видеофиксации нарушений ПДД";"проспект Вернадского, МГТ № 84";"37.537772";"55.694328";"из центра";"Выделенная полоса";"87482503";
103;"Комплекс фото-видеофиксации нарушений ПДД";"проспект Вернадского, Мост Лужники, опора МГТ № 267";"37.556386";"55.708047";"в центр";"Выделенная полоса";"87482504";
104;"Комплекс фото-видеофиксации нарушений ПДД";"проспект Вернадского, д.127";"37.479408";"55.652847";"из центра";"Выделенная полоса";"87482505";
105;"Комплекс фото-видеофиксации нарушений ПДД";"проспект Вернадского, д.25 дублер, МГТ № 184";"37.516828";"55.682933";"из центра";"Выделенная полоса";"87482506";
106;"Комплекс фото-видеофиксации нарушений ПДД";"проспект Вернадского, опора МГТ № 17";"37.550659";"55.703856";"в центр";"Выделенная полоса";"87482507";
107;"Комплекс фото-видеофиксации нарушений ПДД";"проспект Вернадского, опора МГТ № 24";"37.54912";"55.702944";"из центра";"Выделенная полоса";"87482508";
108;"Комплекс фото-видеофиксации нарушений ПДД";"улица Верхние поля - МКАД";"37.83273";"55.656763";"в центр";"Контроль база";"87482509";
109;"Комплекс фото-видеофиксации нарушений ПДД";"улица Верхние поля - МКАД";"37.84024";"55.659553";"внутренняя сторона МКАД";"Контроль база";"87482510";
110;"Комплекс фото-видеофиксации нарушений ПДД";"улица Верхние поля - МКАД";"37.83648";"55.652849";"внутренняя сторона МКАД";"Контроль база";"87482511";
111;"Комплекс фото-видеофиксации нарушений ПДД";"улица Верхние поля - МКАД";"37.8438";"55.656454";"из центра";"Контроль база";"87482512";
112;"Комплекс фото-видеофиксации нарушений ПДД";"Верхняя Красносельская улица, д.7 А";"37.662153";"55.785983";"в центр";"Проезд грузового транспорта";"87482513";
113;"Комплекс фото-видеофиксации нарушений ПДД";"Волгоградский проспект - МКАД";"37.821502";"55.690904";"в центр";"Контроль база";"87482515";
114;"Комплекс фото-видеофиксации нарушений ПДД";"Волгоградский проспект - МКАД";"37.82963";"55.690907";"внутренняя сторона МКАД";"Контроль база+скорость";"87482516";
115;"Комплекс фото-видеофиксации нарушений ПДД";"Волгоградский проспект - МКАД";"37.831729";"55.683007";"внутренняя сторона МКАД";"Контроль база+скорость";"87482517";
116;"Комплекс фото-видеофиксации нарушений ПДД";"Волгоградский проспект - МКАД";"37.854755";"55.676762";"из центра";"Контроль база+скорость";"87482518";
117;"Комплекс фото-видеофиксации нарушений ПДД";"Волгоградский проспект, д.10, стр.2";"37.674796";"55.730004";"из центра";"Скорость";"87482519";
118;"Комплекс фото-видеофиксации нарушений ПДД";"Волгоградский проспект, д.54";"37.752314";"55.707082";"из центра";"Скорость";"87482520";
119;"Комплекс фото-видеофиксации нарушений ПДД";"Волгоградский проспект, д.7";"37.673701";"55.730756";"в центр";"Скорость";"87482521";
120;"Комплекс фото-видеофиксации нарушений ПДД";"Волгоградский проспект, д.93";"37.750404";"55.707527";"в центр";"Скорость";"87482522";
121;"Комплекс фото-видеофиксации нарушений ПДД";"Волгоградский проспект, д.23, стр.6, по улице Академика Скрябина";"37.798722";"55.699647";"из центра";"Скорость";"87482523";
122;"Комплекс фото-видеофиксации нарушений ПДД";"Волгоградский проспект, д.23, стр.9, по улице Академика Скрябина";"37.799701";"55.69926";"в центр";"Скорость";"87482524";
123;"Комплекс фото-видеофиксации нарушений ПДД";"Волоколамское шоссе - МКАД";"37.391352";"55.833475";"из центра";"Контроль база";"87482525";
124;"Комплекс фото-видеофиксации нарушений ПДД";"Волоколамское шоссе - МКАД";"37.401413";"55.831371";"в центр";"Контроль база";"87482526";
125;"Комплекс фото-видеофиксации нарушений ПДД";"Волоколамское шоссе - МКАД";"37.394698";"55.830363";"внутренняя сторона МКАД";"Контроль база+скорость";"87482527";
126;"Комплекс фото-видеофиксации нарушений ПДД";"Волоколамское шоссе, выезд из туннеля, под каналом им. Москвы";"37.452861";"55.819479";"в центр";"Выделенная полоса";"87482528";
127;"Комплекс фото-видеофиксации нарушений ПДД";"Волоколамское шоссе, д.28";"37.481178";"55.811828";"из центра";"Выделенная полоса+скорость";"87482529";
128;"Комплекс фото-видеофиксации нарушений ПДД";"Волоколамское шоссе, д.49";"37.464636";"55.815553";"в центр";"Выделенная полоса";"87482530";
129;"Комплекс фото-видеофиксации нарушений ПДД";"Волоколамское шоссе, д.67, стр.1";"37.445069";"55.821414";"в центр";"Выделенная полоса+скорость";"87482531";
130;"Комплекс фото-видеофиксации нарушений ПДД";"Волоколамское шоссе, д.80";"37.460761";"55.817019";"из центра";"Выделенная полоса+скорость";"87482532";
131;"Комплекс фото-видеофиксации нарушений ПДД";"Волоколамское шоссе, д.90, корп.1, стр.3";"37.436289";"55.824064";"из центра";"Выделенная полоса+скорость";"87482533";
132;"Комплекс фото-видеофиксации нарушений ПДД";"Волоколамское шоссе, МГТ № 85";"37.480886";"55.811494";"в центр";"Выделенная полоса+скорость";"87482534";
133;"Комплекс фото-видеофиксации нарушений ПДД";"Волоколамское шоссе, д.22, корп.2";"37.487786";"55.810539";"в центр";"Выделенная полоса";"87482535";
134;"Комплекс фото-видеофиксации нарушений ПДД";"Волоколамское шоссе, Панфиловский мост через окр. ж/д в область, МГТ № 72";"37.487825";"55.810289";"из центра";"Выделенная полоса+скорость";"87482536";
135;"Комплекс фото-видеофиксации нарушений ПДД";"Волочаевская улица, д.36А";"37.678817";"55.753044";"в центр";"Проезд грузового транспорта";"87482537";
136;"Комплекс фото-видеофиксации нарушений ПДД";"Воробьевское шоссе, д.4";"37.536414";"55.727103";"из центра";"Выделенная полоса";"87482538";
137;"Комплекс фото-видеофиксации нарушений ПДД";"Востряковский проезд - МКАД";"37.653613";"55.575264";"в центр";"Контроль база";"87482539";
138;"Комплекс фото-видеофиксации нарушений ПДД";"Востряковский проезд - МКАД";"37.650391";"55.571539";"из центра";"Контроль база";"87482540";
139;"Комплекс фото-видеофиксации нарушений ПДД";"Востряковский проезд - МКАД";"37.657384";"55.572271";"внешняя сторона МКАД";"Контроль база";"87482541";
140;"Комплекс фото-видеофиксации нарушений ПДД";"Востряковский проезд - МКАД";"37.649234";"55.573134";"внутренняя сторона МКАД";"Контроль база";"87482542";
141;"Комплекс фото-видеофиксации нарушений ПДД";"улица Генерала Дорохова - МКАД";"37.420557";"55.684187";"в центр";"Контроль база";"87482543";
142;"Комплекс фото-видеофиксации нарушений ПДД";"улица Генерала Дорохова - МКАД";"37.422713";"55.674587";"внутренняя сторона МКАД";"Контроль база";"87482544";
143;"Комплекс фото-видеофиксации нарушений ПДД";"улица Генерала Дорохова - МКАД";"37.414989";"55.687181";"внутренняя сторона МКАД";"Контроль база";"87482545";
144;"Комплекс фото-видеофиксации нарушений ПДД";"улица Генерала Дорохова - МКАД";"37.420895";"55.684255";"из центра";"Контроль база";"87482546";
145;"Комплекс фото-видеофиксации нарушений ПДД";"проспект 60-летия Октября, д.8 А";"37.578702";"55.699375";"в центр";"Контроль База";"87815012";
146;"Комплекс фото-видеофиксации нарушений ПДД";"Аминьевское шоссе, д.28, корп.1";"37.451979";"55.717301";"к Можайскому ш.";"Выделенная полоса";"87815013";
147;"Комплекс фото-видеофиксации нарушений ПДД";"проспект Андропова опора МГТ № 173";"37.662606";"55.670289";"в центр";"Выделенная полоса + скорость";"87815014";
148;"Комплекс фото-видеофиксации нарушений ПДД";"проспект Андропова опора МГТ № 216";"37.658694";"55.665504";"из центра";"Выделенная полоса + скорость";"87815015";
149;"Комплекс фото-видеофиксации нарушений ПДД";"проспект Андропова опора МГТ № 246";"37.654739";"55.660481";"из центра";"Выделенная полоса + скорость";"87815016";
150;"Комплекс фото-видеофиксации нарушений ПДД";"проспект Андропова опора МГТ № 249";"37.654086";"55.658589";"в центр";"Выделенная полоса + скорость";"87815017";
151;"Комплекс фото-видеофиксации нарушений ПДД";"улица Большая Полянка, д.4, корп.10";"37.616233";"55.741283";"из центра";"Выделенная полоса + скорость";"87815018";
152;"Комплекс фото-видеофиксации нарушений ПДД";"Большая Тульская улица, д.13";"37.621562";"55.709122";"в центр";"Скорость";"87815019";
153;"Комплекс фото-видеофиксации нарушений ПДД";"Бережковская набережная, д.12";"37.565156";"55.737808";"из центра";"Выделенная полоса";"87815020";
154;"Комплекс фото-видеофиксации нарушений ПДД";"Бережковская набережная, напротив д.22";"37.550975";"55.730592";"в центр";"Выделенная полоса";"87815021";
155;"Комплекс фото-видеофиксации нарушений ПДД";"Боровское шоссе д.3 стр. 42";"37.415736";"55.660342";"из центра";"Выделенная полоса + скорость";"87815022";
156;"Комплекс фото-видеофиксации нарушений ПДД";"Бутырская улица, д.17";"37.583721";"55.798672";"в центр";"Выделенная полоса + скорость";"87815023";
157;"Комплекс фото-видеофиксации нарушений ПДД";"Бутырская улица, д.8";"37.584099";"55.798157";"из центра";"Выделенная полоса + скорость";"87815024";
158;"Комплекс фото-видеофиксации нарушений ПДД";"улица Бутырский Вал, д.52";"37.587928";"55.787422";"в центр";"Проезд грузового транспорта";"87815025";
159;"Комплекс фото-видеофиксации нарушений ПДД";"улица Вавилова, д.3 ТРЦ «Гагаринский»";"37.591382";"55.708588";"в центр";"Проезд грузового транспорта";"87815026";
160;"Комплекс фото-видеофиксации нарушений ПДД";"Улица 1905 Года д.16 (Ваганьковский путепровод)";"37.555301";"55.770861";"в центр";"Контроль база + скорость";"87815027";
161;"Комплекс фото-видеофиксации нарушений ПДД";"Варшавское шоссе, напротив улицы Газопровод д.1, корп.5";"37.601443";"55.593709";"в центр";"Контроль база";"87815028";
162;"Комплекс фото-видеофиксации нарушений ПДД";"Варшавское шоссе, д.116";"37.619652";"55.633774";"из центра";"Контроль база";"87815029";
163;"Комплекс фото-видеофиксации нарушений ПДД";"Варшавское шоссе, д.150";"37.603147";"55.598188";"из центра";"Контроль база";"87815030";
164;"Комплекс фото-видеофиксации нарушений ПДД";"Варшавское шоссе, опора МГТ № 483";"37.615425";"55.622792";"в центр";"Выделенная полоса + скорость";"87815031";
165;"Комплекс фото-видеофиксации нарушений ПДД";"Велозаводская улица д.9";"37.66572";"55.712117";"в центр";"Выделенная полоса";"87815032";
166;"Комплекс фото-видеофиксации нарушений ПДД";"Велозаводская улица, д.6 А";"37.665516";"55.711753";"из центра";"Выделенная полоса";"87815033";
167;"Комплекс фото-видеофиксации нарушений ПДД";"проспект Вернадского, д.50 А";"37.498833";"55.672738";"из центра";"Выделенная полоса";"87815034";
168;"Комплекс фото-видеофиксации нарушений ПДД";"проспект Вернадского, д.59 А";"37.498911";"55.672504";"в центр";"Выделенная полоса";"87815035";
169;"Комплекс фото-видеофиксации нарушений ПДД";"Волгоградский проспект, д.27";"37.692805";"55.723634";"в центр";"Скорость";"87815036";
170;"Комплекс фото-видеофиксации нарушений ПДД";"Волгоградский проспект, д.32, корп.3";"37.692357";"55.723601";"из центра";"Скорость";"87815037";
171;"Комплекс фото-видеофиксации нарушений ПДД";"Волгоградский проспект, д.35";"37.696683";"55.722334";"в центр";"Скорость";"87815038";
172;"Комплекс фото-видеофиксации нарушений ПДД";"Волгоградский проспект, МГО № 222 , выезд на Остаповский путепровод";"37.701315";"55.721941";"в центр";"Скорость";"87815039";
173;"Комплекс фото-видеофиксации нарушений ПДД";"Волоколамское шоссе, д.104";"37.428345";"55.825906";"из центра";"Выделенная полоса + скорость";"87815040";
174;"Комплекс фото-видеофиксации нарушений ПДД";"Волоколамское шоссе, д.120";"37.409303";"55.829924";"из центра";"Выделенная полоса + скорость";"87815041";
175;"Комплекс фото-видеофиксации нарушений ПДД";"Волоколамское шоссе, д.73";"37.429675";"55.825459";"в центр";"Выделенная полоса + скорость";"87815042";
176;"Комплекс фото-видеофиксации нарушений ПДД";"Волоколамское шоссе, д.93";"37.407892";"55.830034";"в центр";"Выделенная полоса + скорость";"87815043";
177;"Комплекс фото-видеофиксации нарушений ПДД";"Дмитровское шоссе, д.23, корп.1";"37.572699";"55.82381";"в центр";"Выделенная полоса + скорость";"87815044";
178;"Комплекс фото-видеофиксации нарушений ПДД";"Дмитровское шоссе, д.63, корп.1";"37.56752";"55.847628";"в центр";"Выделенная полоса + скорость";"87815045";
179;"Комплекс фото-видеофиксации нарушений ПДД";"Каширское шоссе, д.100, корп.1";"37.715776";"55.613956";"из центра";"Контроль база + скорость";"87815046";
180;"Комплекс фото-видеофиксации нарушений ПДД";"Каширское шоссе, опора МГТ № 353 (Борисовские пруды)";"37.703589";"55.632522";"в центр";"Выделенная полоса + скорость";"87815047";
181;"Комплекс фото-видеофиксации нарушений ПДД";"Комсомольский проспект, д.45";"37.573014";"55.720347";"в центр";"Контроль база + скорость";"87815048";
182;"Комплекс фото-видеофиксации нарушений ПДД";"улица Косыгина, влад.29";"37.539154";"55.710595";"от Мичуринского проспекта";"Контроль база + скорость";"87815049";
183;"Комплекс фото-видеофиксации нарушений ПДД";"улица Косыгина, опора МГТ № 154";"37.537247";"55.713537";"к Мичуринскому пр-ту";"Выделенная полоса + скорость";"87815050";
184;"Комплекс фото-видеофиксации нарушений ПДД";"улица Красная Пресня, д.24";"37.56956";"55.761913";"из центра";"Контроль база + скорость";"87815051";
185;"Комплекс фото-видеофиксации нарушений ПДД";"Краснопрудная улица, д.13";"37.667422";"55.779965";"в центр";"Контроль база + скорость";"87815052";
186;"Комплекс фото-видеофиксации нарушений ПДД";"Краснопрудная улица, д.26";"37.667507";"55.780252";"из центра";"Контроль база + скорость";"87815053";
187;"Комплекс фото-видеофиксации нарушений ПДД";"Кутузовский проспект, д.43";"37.527617";"55.738234";"в центр";"Скорость";"87815054";
188;"Комплекс фото-видеофиксации нарушений ПДД";"Ленинградский проспект д.22";"37.574909";"55.781708";"из центра";"Выделенная полоса";"87815055";
189;"Комплекс фото-видеофиксации нарушений ПДД";"Ленинградский проспект, д.27";"37.567738";"55.784528";"в центр";"Контроль база + скорость";"87815056";
190;"Комплекс фото-видеофиксации нарушений ПДД";"Ленинградский проспект, д.36";"37.558461";"55.789164";"из центра";"Контроль база + скорость";"87815057";
191;"Комплекс фото-видеофиксации нарушений ПДД";"Ленинградский проспект, д.43, корп.1";"37.531811";"55.800051";"в центр";"Выделенная полоса";"87815058";
192;"Комплекс фото-видеофиксации нарушений ПДД";"Ленинградский проспект, д.64";"37.527486";"55.802064";"из центра";"Выделенная полоса";"87815059";
193;"Комплекс фото-видеофиксации нарушений ПДД";"Ленинградский проспект, дублер, д.27";"37.568256";"55.783911";"в центр";"Выделенная полоса";"87815060";
194;"Комплекс фото-видеофиксации нарушений ПДД";"Ленинградский проспект, дублер, д.32";"37.568787";"55.784544";"из центра";"Выделенная полоса";"87815061";
195;"Комплекс фото-видеофиксации нарушений ПДД";"Ленинградский проспект, опора МГТ № 189";"37.544633";"55.79436";"в центр";"Выделенная полоса + скорость";"87815062";
196;"Комплекс фото-видеофиксации нарушений ПДД";"Ленинградское шоссе, д.13, корп.1";"37.497757";"55.818927";"в центр";"Контроль база + скорость";"87815063";
197;"Комплекс фото-видеофиксации нарушений ПДД";"Ленинградское шоссе, д.8, корп.2";"37.499445";"55.817476";"из центра";"Контроль база + скорость";"87815064";
198;"Комплекс фото-видеофиксации нарушений ПДД";"Ленинский проспект, д.35";"37.586662";"55.711362";"в центр";"Выделенная полоса";"87815065";
199;"Комплекс фото-видеофиксации нарушений ПДД";"Липецкая ул, д.14, корп.1";"37.67157";"55.597515";"из центра";"Выделенная полоса + скорость";"87815066";
200;"Комплекс фото-видеофиксации нарушений ПДД";"Липецкая улица, д.36/20";"37.679078";"55.58451";"из центра";"Выделенная полоса + скорость";"87815067";
201;"Комплекс фото-видеофиксации нарушений ПДД";"улица Лобачевского, д.22";"37.502513";"55.667651";"к Ленинскому проспекту";"Выделенная полоса + скорость";"87815068";
202;"Комплекс фото-видеофиксации нарушений ПДД";"улица Лобачевского, д.27";"37.481116";"55.681155";"к Вернадскому проспекту";"Выделенная полоса + скорость";"87815069";
203;"Комплекс фото-видеофиксации нарушений ПДД";"Ломоносовский проспект, д.3, корп.1";"37.548889";"55.685817";"от Ленинского проспекта";"Контроль база + скорость";"87815070";
204;"Комплекс фото-видеофиксации нарушений ПДД";"Люблинская улица, д.175";"37.746133";"55.644746";"в центр";"Выделенная полоса";"87815071";
205;"Комплекс фото-видеофиксации нарушений ПДД";"проспект Маршала Жукова,Живописный мост,ДИТ,320м до улицы Крылатская д.17, корп.1";"37.431095";"55.772792";"из центра";"Контроль База + скорость";"87815072";
206;"Комплекс фото-видеофиксации нарушений ПДД";"проспект Маршала Жукова,Живописный мост,ДИТ,320м после улицы Крылатская д.17, корп.1";"37.430352";"55.772622";"в центр";"Контроль База + скорость";"87815073";
207;"Комплекс фото-видеофиксации нарушений ПДД";"проспект Мира, д.125";"37.65003";"55.828653";"в центр";"Контроль База + скорость";"87815074";
208;"Комплекс фото-видеофиксации нарушений ПДД";"проспект Мира, д.184, корп.1";"37.65003";"55.828653";"из центра";"Контроль База + скорость";"87815075";
209;"Комплекс фото-видеофиксации нарушений ПДД";"проспект Мира, д.72";"37.634889";"55.788755";"из центра";"Выделенная полоса";"87815076";
210;"Комплекс фото-видеофиксации нарушений ПДД";"проспект Мира, д.73";"37.634612";"55.788726";"в центр";"Выделенная полоса";"87815077";
211;"Комплекс фото-видеофиксации нарушений ПДД";"Мичуринский проспект, д.80";"37.45791";"55.673489";"из центра";"Выделенная полоса";"87815078";
212;"Комплекс фото-видеофиксации нарушений ПДД";"Мичуринский проспект, напротив д.8 корп.2 по улице Раменки";"37.490417";"55.692891";"в центр";"Выделенная полоса";"87815079";
213;"Комплекс фото-видеофиксации нарушений ПДД";"МКАД, 106 км, МГО № 292";"37.839703";"55.802769";"внутреннее кольцо МКАД";"Контроль база";"87815080";
214;"Комплекс фото-видеофиксации нарушений ПДД";"МКАД, 43 км, МГО № 214";"37.465816";"55.633351";"внешнее кольцо МКАД";"Контроль база";"87815081";
215;"Комплекс фото-видеофиксации нарушений ПДД";"МКАД, 53 км, МГО № 226";"37.393646";"55.706186";"внутреннее кольцо МКАД";"Контроль база";"87815082";
216;"Комплекс фото-видеофиксации нарушений ПДД";"МКАД, 66 км, МГО № 121";"37.388874";"55.811491";"внешнее кольцо МКАД";"Контроль база";"87815083";
217;"Комплекс фото-видеофиксации нарушений ПДД";"МКАД, 66 км, МГО № 130";"37.390656";"55.815";"внутреннее кольцо МКАД";"Контроль база";"87815084";
218;"Комплекс фото-видеофиксации нарушений ПДД";"МКАД, 92 км, МГО № 268";"37.693858";"55.894751";"внешнее кольцо МКАД";"Контроль база";"87815085";
219;"Комплекс фото-видеофиксации нарушений ПДД";"МКАД, 92 км, МГО № 274";"37.697893";"55.893973";"внутреннее кольцо МКАД";"Контроль база";"87815086";
220;"Комплекс фото-видеофиксации нарушений ПДД";"МКАД, 106 км, МГО № 285";"37.839896";"55.805794";"внешнее кольцо МКАД";"Контроль база";"87815087";
221;"Комплекс фото-видеофиксации нарушений ПДД";"МКАД, 12 км, МГО № 103";"37.836867";"55.67119";"внешнее кольцо МКАД";"Контроль база";"87815088";
222;"Комплекс фото-видеофиксации нарушений ПДД";"МКАД, 12 км, МГО № 108";"37.836807";"55.669538";"внутреннее кольцо МКАД";"Контроль база";"87815089";
223;"Комплекс фото-видеофиксации нарушений ПДД";"МКАД, 22 км, МГО № 082";"37.762955";"55.606968";"внешнее кольцо МКАД";"Контроль база";"87815090";
224;"Комплекс фото-видеофиксации нарушений ПДД";"МКАД, 22 км, МГО № 088";"37.759732";"55.605522";"внутреннее кольцо МКАД";"Контроль база";"87815091";
225;"Комплекс фото-видеофиксации нарушений ПДД";"МКАД, 32 км, МГО № 357, Чертаново Южное (ЮАО) р-н";"37.608138";"55.575555";"внутреннее кольцо МКАД";"Контроль база";"87815092";
226;"Комплекс фото-видеофиксации нарушений ПДД";"МКАД, 33 км, МГО № 351";"37.611744";"55.575002";"внешнее кольцо МКАД";"Контроль база";"87815093";
227;"Комплекс фото-видеофиксации нарушений ПДД";"МКАД, 43 км, МГО № 221";"37.463867";"55.635547";"внутреннее кольцо МКАД";"Контроль база";"87815094";
228;"Комплекс фото-видеофиксации нарушений ПДД";"МКАД, 52 км, МГО № 200";"37.402697";"55.698942";"внешнее кольцо МКАД";"Контроль база";"87815095";
229;"Комплекс фото-видеофиксации нарушений ПДД";"МКАД, 78 км, МГО № 15";"37.493969";"55.890738";"внутреннее кольцо МКАД";"Контроль база";"87815096";
230;"Комплекс фото-видеофиксации нарушений ПДД";"МКАД, 78 км, МГО № 124";"37.478661";"55.886338";"внешнее кольцо МКАД";"Контроль база";"87815097";
231;"Комплекс фото-видеофиксации нарушений ПДД";"улица Мневники, д12, корп.1";"37.490684";"55.772866";"из центра";"Контроль База + скорость";"87815098";
232;"Комплекс фото-видеофиксации нарушений ПДД";"Мосфильмовская улица, д.11, корп.1";"37.521202";"55.718703";"в центр";"Контроль База + скорость";"87815099";
233;"Комплекс фото-видеофиксации нарушений ПДД";"Нижегородская улица, д.25";"37.693486";"55.737135";"в центр";"Контроль База + скорость";"87815100";
234;"Комплекс фото-видеофиксации нарушений ПДД";"Нижегородская улица, д.34";"37.695757";"55.736722";"из центра";"Контроль База + скорость";"87815101";
235;"Комплекс фото-видеофиксации нарушений ПДД";"улица Нижние Мневники, д.13 А, деревня Терехово";"37.449653";"55.750317";"в сторону ул. Крылатская";"Контроль База + скорость";"87815102";
236;"Комплекс фото-видеофиксации нарушений ПДД";"улица Нижние Мневники, деревня Терехово";"37.452915";"55.751025";"в сторону ул. Народного ополчения";"Контроль База + скорость";"87815103";
237;"Комплекс фото-видеофиксации нарушений ПДД";"Новослободская улица, д.50, корп.1, стр.2";"37.593473";"55.787463";"из центра";"Выделенная полоса";"87815104";
238;"Комплекс фото-видеофиксации нарушений ПДД";"Новослободская улица, д.55";"37.593266";"55.787369";"в центр";"Выделенная полоса";"87815105";
239;"Комплекс фото-видеофиксации нарушений ПДД";"Новослободская улица, д.73 стр.1";"37.589869";"55.79065";"в центр";"Выделенная полоса";"87815106";
240;"Комплекс фото-видеофиксации нарушений ПДД";"Новоспасский проезд. ( напротив д.24 по улице Крутицкий вал)";"37.661844";"55.729174";"в центр";"Выделенная полоса";"87815107";
241;"Комплекс фото-видеофиксации нарушений ПДД";"улица Обручева, д.13 Б";"37.515519";"55.659184";"к Ленинскому пр-ту";"Выделенная полоса";"87815108";
242;"Комплекс фото-видеофиксации нарушений ПДД";"Олимпийский проспект, напротив д.56, корп.1 по улице Сущевский вал";"37.62221";"55.79195";"в центр";"Проезд грузового транспорта";"87815109";
243;"Комплекс фото-видеофиксации нарушений ПДД";"улица Островитянова, д.53 (опора МГТ № 240)";"37.54276";"55.636075";"из центра";"Выделенная полоса + скорость";"87815110";
244;"Комплекс фото-видеофиксации нарушений ПДД";"Панфиловский проспект, д.1 (Дом мебели)";"37.196648";"56.00287";"к Ленинградскому шоссе.";"Контроль База + скорость";"87815111";
245;"Комплекс фото-видеофиксации нарушений ПДД";"Панфиловский проспект, корп.1101";"37.187194";"55.99274";"от Ленинградского шоссе";"Контроль База + скорость";"87815112";
246;"Комплекс фото-видеофиксации нарушений ПДД";"Панфиловский проспект, остановка Октябрьская (улица Калинина)";"37.183406";"55.988074";"к Ленинградскому шоссе";"Контроль База + скорость";"87815113";
247;"Комплекс фото-видеофиксации нарушений ПДД";"Профсоюзная улица, д.98, корп.1 (опора МГТ № 198)";"37.527911";"55.645203";"из центра";"Выделенная полоса + скорость";"87815114";
248;"Комплекс фото-видеофиксации нарушений ПДД";"Пятницкое шоссе, д.17, стр.4";"37.379239";"55.844335";"в центр";"Выделенная полоса + скорость";"87815115";
249;"Комплекс фото-видеофиксации нарушений ПДД";"Пятницкое шоссе, МГО № 86 (д.24)";"37.3749";"55.846792";"из центра";"Выделенная полоса + скорость";"87815116";
250;"Комплекс фото-видеофиксации нарушений ПДД";"Рязанский проспект, д.73";"37.790986";"55.717806";"в центр";"Контроль База + скорость";"87815117";
251;"Комплекс фото-видеофиксации нарушений ПДД";"Садовое кольцо, внутр., опора МГТ № 478 (Серпуховская площадь)";"37.624446";"55.729827";"внутренняя сторона Садовое кольцо";"Выделенная полоса + скорость";"87815118";
252;"Комплекс фото-видеофиксации нарушений ПДД";"улица Свободы, д.79, корп.1";"37.448374";"55.863205";"из центра";"Контроль База + скорость";"87815119";
253;"Комплекс фото-видеофиксации нарушений ПДД";"улица Свободы, д.79, корп.1";"37.448456";"55.862191";"в центр";"Контроль База + скорость";"87815120";
254;"Комплекс фото-видеофиксации нарушений ПДД";"Севастопольский проспект, д.51, корп.2";"37.583487";"55.668013";"в центр";"Выделенная полоса + скорость";"87815121";
255;"Комплекс фото-видеофиксации нарушений ПДД";"ТТК - 150 м. перед въездом в Кутузовский тоннель";"37.533904";"55.743716";"внутреннее кольцо ТТК";"Контроль База + скорость";"87815122";
256;"Комплекс фото-видеофиксации нарушений ПДД";"ТТК - 150 м. перед въездом в Кутузовский тоннель";"37.53327";"55.744548";"внешнее кольцо ТТК";"Контроль база";"87815123";
257;"Комплекс фото-видеофиксации нарушений ПДД";"ТТК - 5 км, МГО № 1325, съезд с Южнопортовой улицы";"37.693335";"55.717857";"внешнее кольцо ТТК";"Контроль база";"87815124";
258;"Комплекс фото-видеофиксации нарушений ПДД";"ТТК - 19 км. + 200 м., перед мостом «Москва СИТИ»";"37.534916";"55.76079";"внешнее кольцо ТТК";"Контроль база";"87815125";
259;"Комплекс фото-видеофиксации нарушений ПДД";"ТТК, МГО № 0368, Автозаводская улица, напротив д.23";"37.641115";"55.704217";"внутреннее кольцо ТТК";"Контроль база";"87815126";
260;"Комплекс фото-видеофиксации нарушений ПДД";"ТТК, МГО № 1063, Автозаводская улица, д.23, корп.12";"37.640077";"55.704323";"внешнее кольцо ТТК";"Контроль база";"87815127";
261;"Комплекс фото-видеофиксации нарушений ПДД";"ТТК, МГО № 0103, Верхняя Красносельская улица, д.9";"37.663047";"55.785603";"внутреннее кольцо ТТК";"Контроль база";"87815128";
262;"Комплекс фото-видеофиксации нарушений ПДД";"ТТК, МГО № 0084, Нижегородская эстакада";"37.697477";"55.738464";"внутреннее кольцо ТТК";"Контроль база";"87815129";
263;"Комплекс фото-видеофиксации нарушений ПДД";"ТТК, МГО № 0226, перед съездом на улице Шарикоподшипниковскую";"37.686822";"55.716422";"внутреннее кольцо ТТК";"Контроль база";"87815130";
264;"Комплекс фото-видеофиксации нарушений ПДД";"ТТК, МГО № 0506, Чурская эстакада";"37.607786";"55.701371";"внутреннее кольцо ТТК";"Контроль база";"87815131";
265;"Комплекс фото-видеофиксации нарушений ПДД";"ТТК, МГО № 0654, Лужнецкая эстакада";"37.565136";"55.719107";"внутреннее кольцо ТТК";"Контроль база";"87815132";
266;"Комплекс фото-видеофиксации нарушений ПДД";"ТТК, МГО № 0761, выезд с 1-го Сетуньского проезда";"37.543258";"55.732164";"внешнее кольцо ТТК";"Контроль база";"87815133";
267;"Комплекс фото-видеофиксации нарушений ПДД";"ТТК, МГО № 0782, выезд с улица Потылиха";"37.543551";"55.733226";"внутреннее кольцо ТТК";"Контроль база";"87815134";
268;"Комплекс фото-видеофиксации нарушений ПДД";"ТТК, МГО № 0782, перед Киевским путепроводом";"37.543509";"55.733139";"внутреннее кольцо ТТК";"Контроль база";"87815135";
269;"Комплекс фото-видеофиксации нарушений ПДД";"ТТК, МГО № 0838, 19 км. + 400 м., перед съездом на Звенигородское ш.";"37.535098";"55.760754";"внутреннее кольцо ТТК";"Контроль база";"87815136";
270;"Комплекс фото-видеофиксации нарушений ПДД";"ТТК, МГО № 0867, Лужнецкая эстакада";"37.561463";"55.720016";"внешнее кольцо ТТК";"Контроль база";"87815137";
271;"Комплекс фото-видеофиксации нарушений ПДД";"ТТК, МГО № 1039, Чурская эстакада";"37.607351";"55.701261";"внешнее кольцо ТТК";"Контроль база";"87815138";
272;"Комплекс фото-видеофиксации нарушений ПДД";"ТТК, МГО № 1362";"37.656323";"55.79076";"внутреннее кольцо ТТК";"Контроль база";"87815139";
273;"Комплекс фото-видеофиксации нарушений ПДД";"ТТК, МГО № 1495, Нижегородская эстакада";"37.697865";"55.738242";"внешнее кольцо ТТК";"Контроль база";"87815140";
274;"Комплекс фото-видеофиксации нарушений ПДД";"ТТК, МГО № 0103, напротив Лобачика улицы, д.3 В";"37.66354";"55.785518";"внешнее кольцо ТТК";"Контроль база";"87815141";
275;"Комплекс фото-видеофиксации нарушений ПДД";"ТТК, МГО № 0423, улица Новая Башиловка, д.1";"37.571013";"55.789171";"внутреннее кольцо ТТК";"Контроль база";"87815142";
276;"Комплекс фото-видеофиксации нарушений ПДД";"ТТК, МГО № 1078, улица Новая Башиловка, д.14";"37.571037";"55.789452";"внешнее кольцо ТТК";"Контроль база";"87815143";
277;"Комплекс фото-видеофиксации нарушений ПДД";"ТТК, МГО № 1186, улица Сущёвский Вал д.18";"37.603218";"55.792608";"внутреннее кольцо ТТК";"Контроль база";"87815144";
278;"Комплекс фото-видеофиксации нарушений ПДД";"Университетский проспект, между Мичуринским проспектом и Менделеевской улицей, 170 м до перекреста с Менделеевской улицей";"37.531239";"55.708642";"";"Контроль База + скорость";"87815145";
279;"Комплекс фото-видеофиксации нарушений ПДД";"Университетский проспект, между Мичуринским проспектом и Менделеевской улицей, 175 м до перекрестка с Мичуринским проспектом";"37.5311315";"55.7098402";"";"Контроль База + скорость";"87815146";
280;"Комплекс фото-видеофиксации нарушений ПДД";"Фрунзенская набережная, д.38/1";"37.5843";"55.72026";"из центра";"Контроль База + скорость";"87815147";
281;"Комплекс фото-видеофиксации нарушений ПДД";"Центральный проспект, корп.302 А";"37.211401";"55.997799";"к Панфиловскому проспекту";"Контроль База + скорость";"87815148";
282;"Комплекс фото-видеофиксации нарушений ПДД";"Центральный проспект, корп.406";"37.210543";"55.998705";"от Панфиловского проспекта";"Контроль База + скорость";"87815149";
283;"Комплекс фото-видеофиксации нарушений ПДД";"Шарикоподшипниковая улица, д.15";"37.678406";"55.71581";"в центр";"Проезд грузового транспорта";"87815150";
284;"Комплекс фото-видеофиксации нарушений ПДД";"Шмитовский проезд., д.31";"37.537054";"55.755421";"в центр";"Проезд грузового транспорта";"87815151";
285;"Комплекс фото-видеофиксации нарушений ПДД";"Щелковское шоссе, д.50";"37.794449";"55.81";"из центра";"Выделенная полоса + скорость";"87815152";
286;"Комплекс фото-видеофиксации нарушений ПДД";"Щелковское шоссе, д.75/2";"37.800093";"55.810494";"в центр";"Выделенная полоса + скорость";"87815153";
287;"Комплекс фото-видеофиксации нарушений ПДД";"Щелковское шоссе, д.81";"37.81271";"55.811025";"в центр";"Выделенная полоса + скорость";"87815154";
288;"Комплекс фото-видеофиксации нарушений ПДД";"Щелковское шоссе, д.82";"37.815671";"55.810976";"из центра";"Выделенная полоса + скорость";"87815155";
289;"Комплекс фото-видеофиксации нарушений ПДД";"шоссе Энтузиастов, д.10/2";"37.702755";"55.748717";"из центра";"Скорость";"87815156";
290;"Комплекс фото-видеофиксации нарушений ПДД";"шоссе Энтузиастов, д.3";"37.690583";"55.747417";"в центр";"Скорость";"87815157";
291;"Комплекс фото-видеофиксации нарушений ПДД";"шоссе Энтузиастов, д.56";"37.769271";"55.761649";"из центра";"Скорость";"87815158";
292;"Комплекс фото-видеофиксации нарушений ПДД";"шоссе Энтузиастов, д.7 А";"37.702755";"55.748717";"в центр";"Выделенная полоса + скорость";"87815159";
293;"Комплекс фото-видеофиксации нарушений ПДД";"Ярославское шоссе, д.28";"37.693781";"55.861766";"из центра";"Выделенная полоса + скорость";"87815160";
294;"Комплекс фото-видеофиксации нарушений ПДД";"Ярославское шоссе, д.55 А";"37.691377";"55.860586";"в центр";"Выделенная полоса + скорость";"87815161";
295;"Комплекс фото-видеофиксации нарушений ПДД";"улица Гиляровского, д.61, корп.1, по улице Трифоновская";"37.633325";"55.790764";"в центр";"Проезд грузового транспорта";"87482547";
296;"Комплекс фото-видеофиксации нарушений ПДД";"улица Горбунова - МКАД";"37.383959";"55.723341";"в центр";"Контроль база";"87482549";
297;"Комплекс фото-видеофиксации нарушений ПДД";"улица Горбунова - МКАД";"37.379935";"55.72598";"внутренняя сторона МКАД";"Контроль база";"87482550";
298;"Комплекс фото-видеофиксации нарушений ПДД";"улица Горбунова - МКАД";"37.376866";"55.723801";"из центра";"Контроль база";"87482551";
299;"Комплекс фото-видеофиксации нарушений ПДД";"улица Горбунова - МКАД";"37.381926";"55.720707";"внутренняя сторона МКАД";"Контроль база";"87482552";
300;"Комплекс фото-видеофиксации нарушений ПДД";"Госпитальная набережная, д.4, стр.1а";"37.697805";"55.773717";"к Электрозаводскому мосту";"Контроль база";"87482553";
301;"Комплекс фото-видеофиксации нарушений ПДД";"Госпитальный переулок, д.4/6";"37.688578";"55.770665";"в центр";"Проезд грузового транспорта";"87482554";
302;"Комплекс фото-видеофиксации нарушений ПДД";"Даниловская набережная, д.6, корп.3";"37.639523";"55.707941";"в центр";"Скорость";"87482555";
303;"Комплекс фото-видеофиксации нарушений ПДД";"Дмитровское шоссе - МКАД";"37.542835";"55.905211";"в центр";"Контроль база";"87482557";
304;"Комплекс фото-видеофиксации нарушений ПДД";"Дмитровское шоссе - МКАД";"37.516317";"55.901034";"внутренняя сторона МКАД";"Контроль база";"87482558";
305;"Комплекс фото-видеофиксации нарушений ПДД";"Дмитровское шоссе - МКАД";"37.580309";"55.91084";"внутренняя сторона МКАД";"Контроль база";"87482559";
306;"Комплекс фото-видеофиксации нарушений ПДД";"Дмитровское шоссе - МКАД";"37.544459";"55.911112";"из центра";"Контроль база";"87482560";
307;"Комплекс фото-видеофиксации нарушений ПДД";"Дмитровское шоссе, д. 11, стр.Б";"37.5759";"55.817203";"из центра";"Выделенная полоса";"87482561";
308;"Комплекс фото-видеофиксации нарушений ПДД";"Дмитровское шоссе, д.110, стр.2";"37.543503";"55.892353";"из центра";"Скорость";"87482562";
309;"Комплекс фото-видеофиксации нарушений ПДД";"Дмитровское шоссе, д.111";"37.543411";"55.882486";"в центр";"Выделенная полоса";"87482563";
310;"Комплекс фото-видеофиксации нарушений ПДД";"Дмитровское шоссе, д.133, стр.1";"37.542572";"55.890142";"в центр";"Скорость";"87482564";
311;"Комплекс фото-видеофиксации нарушений ПДД";"Дмитровское шоссе, д.149";"37.542761";"55.893719";"в центр";"Скорость";"87482565";
312;"Комплекс фото-видеофиксации нарушений ПДД";"Дмитровское шоссе, д.37, корп.1";"37.572671";"55.831569";"в центр";"Выделенная полоса+скорость";"87482566";
313;"Комплекс фото-видеофиксации нарушений ПДД";"Дмитровское шоссе, д.88";"37.548106";"55.871225";"из центра";"Скорость";"87482567";
314;"Комплекс фото-видеофиксации нарушений ПДД";"Дмитровское шоссе, д.9";"37.576506";"55.815244";"в центр";"Выделенная полоса";"87482568";
315;"Комплекс фото-видеофиксации нарушений ПДД";"Дмитровское шоссе, д.96, корп.1";"37.547067";"55.876942";"из центра";"Выделенная полоса";"87482569";
316;"Комплекс фото-видеофиксации нарушений ПДД";"Дмитровское шоссе, д.98, стр.1";"37.546094";"55.879241";"из центра";"Выделенная полоса";"87482570";
317;"Комплекс фото-видеофиксации нарушений ПДД";"Дмитровское шоссе, мост через Октябрьскую ж/д, МГТ № 135";"37.571711";"55.836822";"в центр";"Выделенная полоса";"87482571";
318;"Комплекс фото-видеофиксации нарушений ПДД";"Дмитровское шоссе, д.1, корп.1";"37.579189";"55.810969";"из центра";"Скорость";"87482572";
319;"Комплекс фото-видеофиксации нарушений ПДД";"Дмитровское шоссе, д.25, корп.1";"37.572997";"55.824647";"из центра";"Выделенная полоса";"87482573";
320;"Комплекс фото-видеофиксации нарушений ПДД";"Дмитровское шоссе, д.37, корп.1";"37.573014";"55.831304";"из центра";"Выделенная полоса+скорость";"87482574";
321;"Комплекс фото-видеофиксации нарушений ПДД";"Дмитровское шоссе, д.7, корп.2";"37.577603";"55.813561";"из центра";"Выделенная полоса";"87482575";
322;"Комплекс фото-видеофиксации нарушений ПДД";"Духовской переулок, д.14";"37.615256";"55.704708";"в центр";"Проезд грузового транспорта";"87482576";
323;"Комплекс фото-видеофиксации нарушений ПДД";"улица Дыбенко, д.38";"37.482319";"55.876935";"из центра";"Контроль база";"87482577";
324;"Комплекс фото-видеофиксации нарушений ПДД";"Енисейская улица, МГО № 25";"37.668586";"55.877931";"в центр";"Скорость";"87482578";
325;"Комплекс фото-видеофиксации нарушений ПДД";"Енисейская улица, д.21";"37.671472";"55.882422";"из центра";"Скорость";"87482579";
326;"Комплекс фото-видеофиксации нарушений ПДД";"Заповедная улица, д.2, МГО № 004";"37.629542";"55.869316";"от Дежнева пр-да";"Контроль база";"87482580";
327;"Комплекс фото-видеофиксации нарушений ПДД";"Звенигородское шоссе, д.25, стр.3";"37.545342";"55.765172";"в центр";"Проезд грузового транспорта";"87482581";
328;"Комплекс фото-видеофиксации нарушений ПДД";"Звенигородское шоссе, МГО № 20";"37.511094";"55.769722";"в центр";"Выделенная полоса";"87482582";
329;"Комплекс фото-видеофиксации нарушений ПДД";"Звенигородское шоссе, МГО № 44";"37.312805";"55.4648";"из центра";"Скорость";"87482583";
330;"Комплекс фото-видеофиксации нарушений ПДД";"Звенигородское шоссе, МГО № 55";"37.501864";"55.771086";"из центра";"Выделенная полоса";"87482584";
331;"Комплекс фото-видеофиксации нарушений ПДД";"Звенигородсое шоссе, МГО № 48";"37.546542";"55.765175";"из центра";"Выделенная полоса";"87482585";
332;"Комплекс фото-видеофиксации нарушений ПДД";"улица Земляной Вал, д.48 Б";"37.655809";"55.752135";"внутренняя сторона Садовое кольцо";"Скорость";"87482586";
333;"Комплекс фото-видеофиксации нарушений ПДД";"улица Золоторожский Вал, д.4, стр.4";"37.691178";"55.755058";"в центр";"Проезд грузового транспорта";"87482587";
334;"Комплекс фото-видеофиксации нарушений ПДД";"Кавказский бульвар, д.1/1, корп.1";"37.673315";"55.6351";"к Кантемировская улица";"Контроль база";"87482588";
335;"Комплекс фото-видеофиксации нарушений ПДД";"Кантемировская улица, д.53, корп.1";"37.650658";"55.637859";"от Пролетарского пр-та";"Контроль база";"87482589";
336;"Комплекс фото-видеофиксации нарушений ПДД";"проезд Карамзина - МКАД";"37.533359";"55.594134";"в центр";"Контроль база";"87482590";
337;"Комплекс фото-видеофиксации нарушений ПДД";"проезд Карамзина - МКАД";"37.544646";"55.587599";"внутренняя сторона МКАД";"Контроль база";"87482591";
338;"Комплекс фото-видеофиксации нарушений ПДД";"проезд Карамзина - МКАД";"37.525114";"55.592658";"внутренняя сторона МКАД";"Контроль база";"87482592";
339;"Комплекс фото-видеофиксации нарушений ПДД";"Каспийская улица, д.10";"37.683551";"55.630157";"от Каширского ш.";"Контроль база";"87482593";
340;"Комплекс фото-видеофиксации нарушений ПДД";"улица Борисовские Пруды, д.12, корп.1";"37.742878";"55.63663";"к Люблинской улице";"Скорость";"87482465";
341;"Комплекс фото-видеофиксации нарушений ПДД";"16-я Парковая улица, д.39, стр.1";"37.829651";"55.806028";"от Щелковского ш.";"Контроль база";"87476395";
342;"Комплекс фото-видеофиксации нарушений ПДД";"Березовой Рощи проезд, д.10";"37.518406";"55.788742";"к Авиаконструктора Микояна улице";"Скорость";"87482460";
343;"Комплекс фото-видеофиксации нарушений ПДД";"улица Дмитрия Ульянова, д.16, корп.1";"37.570061";"55.688602";"к Профсоюзной улице";"Контроль база";"87482556";
344;"Комплекс фото-видеофиксации нарушений ПДД";"Вешняковская улица, д.23";"37.829551";"55.72993";"от Молдагуловой улице";"Контроль база";"87482514";
345;"Комплекс фото-видеофиксации нарушений ПДД";"проспект 60-летия Октября, д.8 Б, стр.1";"37.576723";"55.695514";"к Профсоюзной улице";"Контроль база";"87476401";
346;"Комплекс фото-видеофиксации нарушений ПДД";"Боровая улица, д.22/2";"37.712173";"55.77345";"по Госпитальный Вал улице";"Контроль база";"87482469";
347;"Комплекс фото-видеофиксации нарушений ПДД";"улица Борисовские Пруды, д.19, корп.1";"37.722574";"55.635221";"к Люблинской улице";"Скорость";"87482468";
348;"Комплекс фото-видеофиксации нарушений ПДД";"Каширское шоссе - МКАД";"37.734289";"55.593636";"внутренняя сторона МКАД";"Контроль база+скорость";"87482594";
349;"Комплекс фото-видеофиксации нарушений ПДД";"Каширское шоссе - МКАД";"37.72326";"55.589481";"внутренняя сторона МКАД";"Контроль база+скорость";"87482595";
350;"Комплекс фото-видеофиксации нарушений ПДД";"Каширское шоссе - МКАД";"37.842222";"55.747378";"из центра";"Контроль база+скорость";"87482596";
351;"Комплекс фото-видеофиксации нарушений ПДД";"Каширское шоссе - МКАД, реконструкция";"37.725396";"55.596971";"в центр";"Контроль база";"87482597";
352;"Комплекс фото-видеофиксации нарушений ПДД";"Кетчерская улица - МКАД";"37.832697";"55.743878";"в центр";"Контроль база";"87482598";
353;"Комплекс фото-видеофиксации нарушений ПДД";"Кетчерская улица - МКАД";"37.842222";"55.747378";"внутренняя сторона МКАД";"Контроль база";"87482599";
354;"Комплекс фото-видеофиксации нарушений ПДД";"Кетчерская улица - МКАД";"37.841257";"55.739605";"внутренняя сторона МКАД";"Контроль база";"87482600";
355;"Комплекс фото-видеофиксации нарушений ПДД";"Кетчерская улица - МКАД";"37.853988";"55.744772";"из центра";"Контроль база";"87482601";
356;"Комплекс фото-видеофиксации нарушений ПДД";"Киевская улица, д.44/28";"37.537295";"55.739121";"в центр";"Проезд грузового транспорта";"87482602";
357;"Комплекс фото-видеофиксации нарушений ПДД";"Кировоградская улица, д.10, корп.1";"37.609666";"55.624586";"из центра";"Скорость";"87482603";
358;"Комплекс фото-видеофиксации нарушений ПДД";"Кировоградская улица, д.19, корп.1";"37.601216";"55.606073";"в центр";"Скорость";"87482604";
359;"Комплекс фото-видеофиксации нарушений ПДД";"Кировоградская улица, д.19, корп.1";"37.600722";"55.605715";"из центра";"Скорость";"87482605";
360;"Комплекс фото-видеофиксации нарушений ПДД";"Коломенский проезд, д.19, корп.2";"37.636626";"55.664195";"к Каширскому ш.";"Контроль база";"87482606";
361;"Комплекс фото-видеофиксации нарушений ПДД";"Коломенский проезд, д.4, стр.4";"37.636702";"55.664022";"к Андропова пр-ту";"Контроль база";"87482607";
362;"Комплекс фото-видеофиксации нарушений ПДД";"улица Комдива Орлова, д.33/7";"37.580253";"55.838953";"из центра";"Скорость";"87482608";
363;"Комплекс фото-видеофиксации нарушений ПДД";"Комсомольский проспект, д.20";"37.585625";"55.729286";"из центра";"Выделенная полоса";"87482609";
364;"Комплекс фото-видеофиксации нарушений ПДД";"Комсомольский проспект, д.44";"37.57271";"55.720331";"из центра";"Выделенная полоса";"87482610";
365;"Комплекс фото-видеофиксации нарушений ПДД";"Комсомольский проспект, дублер, д.49";"37.572372";"55.719619";"в центр";"Проезд грузового транспорта";"87482611";
366;"Комплекс фото-видеофиксации нарушений ПДД";"Коровинское шоссе, д.10";"37.533098";"55.870736";"из центра";"Скорость";"87482612";
367;"Комплекс фото-видеофиксации нарушений ПДД";"Коровинское шоссе, д.13, корп.1";"37.534478";"55.870275";"в центр";"Скорость";"87482613";
368;"Комплекс фото-видеофиксации нарушений ПДД";"улица Космонавта Волкова, д.10";"37.514008";"55.815616";"к Б.Академической улица";"Контроль база";"87482614";
369;"Комплекс фото-видеофиксации нарушений ПДД";"улица Косыгина, д.9";"37.567692";"55.706774";"в центр";"Скорость";"87482615";
370;"Комплекс фото-видеофиксации нарушений ПДД";"улица Косыгина, МГТ № 191, от Мосфильмовской улицы";"37.534789";"55.717981";"к Мичуринскому пр-ту";"Выделенная полоса+скорость";"87482616";
371;"Комплекс фото-видеофиксации нарушений ПДД";"улица Косыгина, МГТ № 194";"37.535383";"55.720375";"от Мичуринского пр-та к Мосфильмовской улица";"Выделенная полоса+скорость";"87482617";
372;"Комплекс фото-видеофиксации нарушений ПДД";"улица Коштоянца, д.47, корп.1";"37.476433";"55.672132";"к Лобачевского улица";"Контроль база";"87482618";
373;"Комплекс фото-видеофиксации нарушений ПДД";"Краснопрудная улица, д.1";"37.663578";"55.778536";"в центр";"Скорость";"87482619";
374;"Комплекс фото-видеофиксации нарушений ПДД";"Краснохолмская набережная, д.11, стр.1";"37.650121";"55.73335";"в центр";"Скорость";"87482620";
375;"Комплекс фото-видеофиксации нарушений ПДД";"Крутицкая набережная, д.7";"37.658604";"55.725497";"в центр";"Скорость";"87482621";
376;"Комплекс фото-видеофиксации нарушений ПДД";"Крылатская улица, д.14";"37.429317";"55.766632";"к Маршала Жукова пр-ту";"Контроль база";"87482622";
377;"Комплекс фото-видеофиксации нарушений ПДД";"улица Крымский Вал, д.9, стр.2";"37.603891";"55.732279";"внешняя сторона Садовое кольцо";"Скорость";"87482623";
378;"Комплекс фото-видеофиксации нарушений ПДД";"Крымский проезд, д.2, стр.1/53";"37.595384";"55.73586";"внутренняя сторона Садовое кольцо";"Скорость";"87482624";
379;"Комплекс фото-видеофиксации нарушений ПДД";"Кутузовский проспект, д.33";"37.539259";"55.741423";"в центр";"Проезд грузового транспорта + скорость";"87482625";
380;"Комплекс фото-видеофиксации нарушений ПДД";"улица Куусинена, д.19а";"37.511612";"55.788249";"к Хорошевскому ш.";"Скорость";"87482626";
381;"Комплекс фото-видеофиксации нарушений ПДД";"улица Куусинена, д.19";"37.512556";"55.787288";"от Хорошевского ш.";"Скорость";"87482627";
382;"Комплекс фото-видеофиксации нарушений ПДД";"Ладожская улица, напротив д.16";"37.687521";"55.771549";"в центр";"Проезд грузового транспорта";"87482628";
383;"Комплекс фото-видеофиксации нарушений ПДД";"Ленинградское шоссе - МКАД";"37.465725";"55.88299";"внутренняя сторона МКАД";"Контроль база";"87482629";
384;"Комплекс фото-видеофиксации нарушений ПДД";"Ленинградское шоссе - МКАД";"37.451658";"55.880558";"из центра";"Контроль база";"87482630";
385;"Комплекс фото-видеофиксации нарушений ПДД";"Ленинградское шоссе, д.17";"37.494022";"55.823497";"в центр";"Выделенная полоса";"87482631";
386;"Комплекс фото-видеофиксации нарушений ПДД";"Ленинградское шоссе, д.20/1";"37.492314";"55.8259";"из центра";"Выделенная полоса";"87482632";
387;"Комплекс фото-видеофиксации нарушений ПДД";"Ленинградское шоссе, д.5";"37.505425";"55.809778";"в центр";"Выделенная полоса";"87482633";
388;"Комплекс фото-видеофиксации нарушений ПДД";"Ленинградское шоссе, д.5А";"37.502133";"55.813586";"в центр";"Выделенная полоса";"87482634";
389;"Комплекс фото-видеофиксации нарушений ПДД";"Ленинградское шоссе, д.80";"37.475597";"55.847553";"из центра";"Выделенная полоса";"87482635";
390;"Комплекс фото-видеофиксации нарушений ПДД";"улица Ленинская Слобода, д.23/14";"37.646939";"55.704256";"в центр";"Проезд грузового транспорта";"87482636";
391;"Комплекс фото-видеофиксации нарушений ПДД";"Ленинский проспект - МКАД";"37.455612";"55.637256";"в центр";"Контроль база+скорость";"87482637";
392;"Комплекс фото-видеофиксации нарушений ПДД";"Ленинский проспект - МКАД";"37.46345";"55.635574";"внутренняя сторона МКАД";"Контроль база+скорость";"87482638";
393;"Комплекс фото-видеофиксации нарушений ПДД";"Ленинский проспект - МКАД";"37.45531";"55.642851";"внутренняя сторона МКАД";"Контроль база+скорость";"87482639";
394;"Комплекс фото-видеофиксации нарушений ПДД";"Ленинский проспект - МКАД";"37.465097";"55.641283";"из центра";"Контроль база+скорость";"87482640";
395;"Комплекс фото-видеофиксации нарушений ПДД";"Ленинский проспект, д.57";"37.560486";"55.696597";"в центр";"Выделенная полоса";"87482641";
396;"Комплекс фото-видеофиксации нарушений ПДД";"Ленинский проспект, д.60/2";"37.557508";"55.695603";"из центра";"Выделенная полоса";"87482642";
397;"Комплекс фото-видеофиксации нарушений ПДД";"Ленинский проспект, д.72";"37.54095";"55.685111";"из центра";"Выделенная полоса";"87482643";
398;"Комплекс фото-видеофиксации нарушений ПДД";"Ленинский проспект, д.81";"37.53935";"55.683367";"в центр";"Выделенная полоса";"87482644";
399;"Комплекс фото-видеофиксации нарушений ПДД";"Ленинский проспект, д.90";"37.524639";"55.674108";"из центра";"Выделенная полоса";"87482645";
400;"Комплекс фото-видеофиксации нарушений ПДД";"Ленинский проспект, д.91";"37.529792";"55.677347";"в центр";"Выделенная полоса";"87482646";
401;"Комплекс фото-видеофиксации нарушений ПДД";"Ленинский проспект, д.99";"37.519539";"55.670014";"в центр";"Выделенная полоса";"87482647";
402;"Комплекс фото-видеофиксации нарушений ПДД";"Ленинский проспект, д.89";"37.531053";"55.678189";"из центра";"Выделенная полоса";"87482648";
403;"Комплекс фото-видеофиксации нарушений ПДД";"Ленинский проспект, д.2 по улице Удальцова";"37.520442";"55.671331";"из центра";"Выделенная полоса";"87482649";
404;"Комплекс фото-видеофиксации нарушений ПДД";"Лианозовский проезд, д.8А";"37.547389";"55.900094";"к Дмитровскому ш.";"Контроль база";"87482650";
405;"Комплекс фото-видеофиксации нарушений ПДД";"Липецкая улица - МКАД";"37.684737";"55.579291";"в центр";"Контроль база";"87482651";
406;"Комплекс фото-видеофиксации нарушений ПДД";"Липецкая улица - МКАД";"37.69144";"55.571828";"из центра";"Контроль база";"87482652";
407;"Комплекс фото-видеофиксации нарушений ПДД";"Липецкая улица - МКАД";"37.694722";"55.578069";"внутренняя сторона МКАД";"Контроль база";"87482653";
408;"Комплекс фото-видеофиксации нарушений ПДД";"Липецкая улица - МКАД";"37.682162";"55.574216";"внутренняя сторона МКАД";"Контроль база";"87482654";
409;"Комплекс фото-видеофиксации нарушений ПДД";"Липецкая улица, д.20";"37.672503";"55.593572";"из центра";"Выделенная полоса";"87482655";
410;"Комплекс фото-видеофиксации нарушений ПДД";"Липецкая улица, д.34/25";"37.676442";"55.587193";"из центра";"Выделенная полоса";"87482656";
411;"Комплекс фото-видеофиксации нарушений ПДД";"Липецкая улица, д.48";"37.681847";"55.581592";"из центра";"Выделенная полоса";"87482657";
412;"Комплекс фото-видеофиксации нарушений ПДД";"Липецкая улица, д.7, корп.1";"37.681567";"55.582361";"в центр";"Выделенная полоса";"87482658";
413;"Комплекс фото-видеофиксации нарушений ПДД";"Липецкая улица, МГТ № 92";"37.661448";"55.612837";"из центра";"Выделенная полоса";"87482659";
414;"Комплекс фото-видеофиксации нарушений ПДД";"Липецкая улица, вл.2, корп.12";"37.668164";"55.606106";"в центр";"Выделенная полоса";"87482660";
415;"Комплекс фото-видеофиксации нарушений ПДД";"Липецкая улица, д.18";"37.672697";"55.595219";"в центр";"Выделенная полоса";"87482661";
416;"Комплекс фото-видеофиксации нарушений ПДД";"Липецкая улица, д.3 А, МГТ № 283";"37.678245";"55.585395";"в центр";"Выделенная полоса";"87482662";
417;"Комплекс фото-видеофиксации нарушений ПДД";"Липецкая улица, д.4";"37.671082";"55.600667";"в центр";"Выделенная полоса+скорость";"87482663";
418;"Комплекс фото-видеофиксации нарушений ПДД";"улица Лобачевского, д.108, к Рублевскому шоссе";"37.474303";"55.688294";"к Рублевскому ш.";"Выделенная полоса";"87482664";
419;"Комплекс фото-видеофиксации нарушений ПДД";"улица Лобачевского, д.120, к Рублевскому шоссе";"37.467031";"55.694025";"к Рублевскому ш.";"Выделенная полоса";"87482665";
420;"Комплекс фото-видеофиксации нарушений ПДД";"улица Лобачевского, д.22";"37.503111";"55.667394";"к Вернадского пр-ту";"Выделенная полоса";"87482666";
421;"Комплекс фото-видеофиксации нарушений ПДД";"улица Лобачевского, д.44";"37.499494";"55.66915";"к Вернадского пр-ту";"Выделенная полоса";"87482667";
422;"Комплекс фото-видеофиксации нарушений ПДД";"улица Лобачика, у д.7, стр.25 по Малой Красносельской улице";"37.660744";"55.787148";"в центр";"Проезд грузового транспорта";"87482668";
423;"Комплекс фото-видеофиксации нарушений ПДД";"Лужнецкий проезд, у д.38 по улице Хамовнический вал";"37.556353";"55.723889";"в центр";"Проезд грузового транспорта";"87482669";
424;"Комплекс фото-видеофиксации нарушений ПДД";"Люблинская улица, д.102 А";"37.743132";"55.651267";"из центра";"Выделенная полоса";"87482670";
425;"Комплекс фото-видеофиксации нарушений ПДД";"Люблинская улица, д.112 А, стр.2";"37.742094";"55.654247";"из центра";"Выделенная полоса";"87482671";
426;"Комплекс фото-видеофиксации нарушений ПДД";"Люблинская улица, д.117/4";"37.739022";"55.676178";"в центр";"Выделенная полоса";"87482672";
427;"Комплекс фото-видеофиксации нарушений ПДД";"Люблинская улица, д.15/46, стр.7 по Волгоградскому проспекту";"37.73095";"55.707061";"в центр";"Выделенная полоса";"87482673";
428;"Комплекс фото-видеофиксации нарушений ПДД";"Люблинская улица, д.37/1";"37.733857";"55.696186";"в центр";"Выделенная полоса";"87482674";
429;"Комплекс фото-видеофиксации нарушений ПДД";"Люблинская улица, д.46";"37.7379";"55.681783";"из центра";"Выделенная полоса";"87482675";
430;"Комплекс фото-видеофиксации нарушений ПДД";"Люблинская улица, напротив д.65 по Батайскому проезду";"37.738817";"55.676867";"из центра";"Выделенная полоса";"87482676";
431;"Комплекс фото-видеофиксации нарушений ПДД";"Люблинская улица, опора МГТ № 99";"37.735367";"55.691744";"в центр";"Выделенная полоса";"87482677";
432;"Комплекс фото-видеофиксации нарушений ПДД";"Люсиновская улица, владение 72 А";"37.622187";"55.714464";"из центра";"Скорость";"87482678";
433;"Комплекс фото-видеофиксации нарушений ПДД";"Люсиновская улица, д.4";"37.623042";"55.72737";"из центра";"Контроль база";"87482679";
434;"Комплекс фото-видеофиксации нарушений ПДД";"Малая Почтовая улица, напротив д.10";"37.686569";"55.772372";"в центр";"Проезд грузового транспорта";"87482680";
435;"Комплекс фото-видеофиксации нарушений ПДД";"улица Расковой, д.34";"37.57745";"55.791203";"в центр";"Проезд грузового транспорта";"87482681";
436;"Комплекс фото-видеофиксации нарушений ПДД";"Малая Тульская улица, напротив д.25, стр.38";"37.617744";"55.706892";"в центр";"Проезд грузового транспорта";"87482682";
437;"Комплекс фото-видеофиксации нарушений ПДД";"проспект Маршала Жукова - МКАД";"37.349518";"55.796496";"из центра";"Контроль база+скорость";"87482683";
438;"Комплекс фото-видеофиксации нарушений ПДД";"проспект Маршала Жукова - МКАД";"37.38107";"55.788006";"в центр";"Контроль база+скорость";"87482684";
439;"Комплекс фото-видеофиксации нарушений ПДД";"проспект Маршала Жукова - МКАД";"37.369863";"55.784645";"внутренняя сторона МКАД";"Контроль база+скорость";"87482685";
440;"Комплекс фото-видеофиксации нарушений ПДД";"проспект Маршала Жукова - МКАД";"37.377753";"55.795207";"внутренняя сторона МКАД";"Контроль база+скорость";"87482686";
441;"Комплекс фото-видеофиксации нарушений ПДД";"проспект Маршала Жукова, д.59";"37.458858";"55.779353";"в центр";"Скорость";"87482687";
442;"Комплекс фото-видеофиксации нарушений ПДД";"проспект Маршала Жукова, д.64, корп.1";"37.458036";"55.778508";"из центра";"Выделенная полоса";"87482688";
443;"Комплекс фото-видеофиксации нарушений ПДД";"проспект Маршала Жукова, дублер, д.64, корп.1";"37.458036";"55.778508";"из центра";"Выделенная полоса";"87482689";
444;"Комплекс фото-видеофиксации нарушений ПДД";"улица Маршала Катукова - МКАД";"37.388725";"55.811314";"внутренняя сторона МКАД";"Контроль база+скорость";"87482690";
445;"Комплекс фото-видеофиксации нарушений ПДД";"улица Маршала Катукова - МКАД";"37.390933";"55.816565";"внутренняя сторона МКАД";"Контроль база+скорость";"87482691";
446;"Комплекс фото-видеофиксации нарушений ПДД";"улица Маршала Катукова - МКАД Неманский проезд, д.4к2";"37.392058";"55.813918";"в центр";"Контроль база";"87482692";
447;"Комплекс фото-видеофиксации нарушений ПДД";"проспект Мира, д.102, корп.2";"37.636478";"55.802086";"из центра";"Скорость";"87482693";
448;"Комплекс фото-видеофиксации нарушений ПДД";"проспект Мира, д.105";"37.638136";"55.814886";"в центр";"Выделенная полоса+скорость";"87482694";
449;"Комплекс фото-видеофиксации нарушений ПДД";"проспект Мира, д.124";"37.638297";"55.816367";"из центра";"Скорость";"87482695";
450;"Комплекс фото-видеофиксации нарушений ПДД";"проспект Мира, д.176";"37.644736";"55.823511";"из центра";"Выделенная полоса";"87482696";
451;"Комплекс фото-видеофиксации нарушений ПДД";"проспект Мира, д.184, корп.1, выезд тоннеля";"37.649728";"55.828733";"из центра";"Скорость";"87482697";
452;"Комплекс фото-видеофиксации нарушений ПДД";"проспект Мира, дублер, пересечение с улицей Космонавтов";"37.641403";"55.821431";"в центр";"Выделенная полоса";"87482698";
453;"Комплекс фото-видеофиксации нарушений ПДД";"улица Михайлова, напротив д.11";"37.764647";"55.72833";"к Коновалова ул.";"Контроль база";"87482699";
454;"Комплекс фото-видеофиксации нарушений ПДД";"Мичуринский проспект, д.20";"37.504842";"55.701533";"из центра";"Выделенная полоса";"87482700";
455;"Комплекс фото-видеофиксации нарушений ПДД";"Мичуринский проспект, д.21";"37.503039";"55.699789";"в центр";"Выделенная полоса";"87482701";
456;"Комплекс фото-видеофиксации нарушений ПДД";"Мичуринский проспект, напротив д.45 А, МГТ № 162";"37.4833";"55.689206";"из центра";"Выделенная полоса+скорость";"87482702";
457;"Комплекс фото-видеофиксации нарушений ПДД";"Мичуринский проспект, напротив д.70, МГТ № 283";"37.472186";"55.682756";"в центр";"Выделенная полоса+скорость";"87482703";
458;"Комплекс фото-видеофиксации нарушений ПДД";"улица Мневники, д.18";"37.489172";"55.773114";"из центра";"Скорость";"87482704";
459;"Комплекс фото-видеофиксации нарушений ПДД";"улица Мневники, д.25";"37.480506";"55.774333";"в центр";"Скорость";"87482705";
460;"Комплекс фото-видеофиксации нарушений ПДД";"Можайское шоссе - МКАД";"37.39197";"55.714648";"в центр";"Контроль база";"87482706";
461;"Комплекс фото-видеофиксации нарушений ПДД";"Можайское шоссе - МКАД";"37.38454";"55.716942";"внутренняя сторона МКАД";"Контроль база";"87482707";
462;"Комплекс фото-видеофиксации нарушений ПДД";"Можайское шоссе - МКАД";"37.392659";"55.70672";"внутренняя сторона МКАД";"Контроль база+скорость";"87482708";
463;"Комплекс фото-видеофиксации нарушений ПДД";"Можайское шоссе - МКАД";"37.39197";"55.714648";"из центра";"Контроль база";"87482709";
464;"Комплекс фото-видеофиксации нарушений ПДД";"улица Молдагуловой - МКАД";"37.834306";"55.718988";"в центр";"Контроль база";"87482710";
465;"Комплекс фото-видеофиксации нарушений ПДД";"улица Молдагуловой - МКАД";"37.83407";"55.719224";"в центр";"Контроль база";"87482711";
466;"Комплекс фото-видеофиксации нарушений ПДД";"улица Молдагуловой - МКАД";"37.842675";"55.717934";"из центра";"Контроль база";"87482712";
467;"Комплекс фото-видеофиксации нарушений ПДД";"улица Молдагуловой - МКАД";"37.839338";"55.720838";"внутренняя сторона МКАД";"Контроль база";"87482713";
468;"Комплекс фото-видеофиксации нарушений ПДД";"улица Молдагуловой - МКАД";"37.838306";"55.716499";"внутренняя сторона МКАД";"Контроль база";"87482714";
469;"Комплекс фото-видеофиксации нарушений ПДД";"Молодогвардейская улица - МКАД";"37.383223";"55.732757";"в центр";"Контроль база";"87482715";
470;"Комплекс фото-видеофиксации нарушений ПДД";"Молодогвардейская улица - МКАД";"37.375716";"55.732602";"внутренняя сторона МКАД";"Скорость";"87482716";
471;"Комплекс фото-видеофиксации нарушений ПДД";"Молодогвардейская улица - МКАД";"37.370056";"55.745458";"внутренняя сторона МКАД";"Контроль база+скорость";"87482717";
472;"Комплекс фото-видеофиксации нарушений ПДД";"улица Москворечье, д.1";"37.638427";"55.654687";"в центр";"Контроль база";"87482718";
473;"Комплекс фото-видеофиксации нарушений ПДД";"улица Москворечье, напротив д.1";"37.637397";"55.65534";"из центра";"Контроль база";"87482719";
474;"Комплекс фото-видеофиксации нарушений ПДД";"улица Мусы Джалиля, д.5, корп.1";"37.741971";"55.629641";"в центр";"Скорость";"87482720";
475;"Комплекс фото-видеофиксации нарушений ПДД";"Мякининский проезд - МКАД";"37.384047";"55.809368";"из центра";"Контроль база";"87482721";
476;"Комплекс фото-видеофиксации нарушений ПДД";"Мякининский проезд - МКАД";"37.386696";"55.806011";"внутренняя сторона МКАД";"Контроль база+скорость";"87482722";
477;"Комплекс фото-видеофиксации нарушений ПДД";"Мякининский проезд - МКАД";"37.389116";"55.810455";"внутренняя сторона МКАД";"Контроль база+скорость";"87482723";
478;"Комплекс фото-видеофиксации нарушений ПДД";"Мякининский проезд - МКАД Неманский проезд, д.11";"37.394303";"55.807773";"в центр";"Контроль база";"87482724";
479;"Комплекс фото-видеофиксации нарушений ПДД";"Мякининский проезд - МКАД Неманский проезд, д.13, корп.2";"37.391343";"55.809465";"в центр";"Контроль база";"87482725";
480;"Комплекс фото-видеофиксации нарушений ПДД";"Мякиниский проезд - МКАД, комплекс № 2";"37.380815";"55.809704";"из центра";"Контроль база";"87482726";
481;"Комплекс фото-видеофиксации нарушений ПДД";"Нагатинская набережная, напротив д.12, корп.2";"37.647056";"55.683975";"в центр";"Скорость";"87482727";
482;"Комплекс фото-видеофиксации нарушений ПДД";"улица Народного Ополчения, д.23";"37.478838";"55.778567";"к Маршала Жукова пр-ту";"Скорость";"87482728";
483;"Комплекс фото-видеофиксации нарушений ПДД";"улица Народного Ополчения, д.50";"37.495773";"55.794729";"к Ленинградскому пр-ту";"Скорость";"87482729";
484;"Комплекс фото-видеофиксации нарушений ПДД";"улица Народного Ополчения, напротив д.34/1 по Карамышевской набережной";"37.474322";"55.769397";"к Нижние Мневники ул.";"Скорость";"87482730";
485;"Комплекс фото-видеофиксации нарушений ПДД";"Нахимовский проспект, д.25, корп.1";"37.520821";"55.754588";"к Варшавскому ш.";"Скорость";"87482731";
486;"Комплекс фото-видеофиксации нарушений ПДД";"Неманский проезд - МКАД Неманский проезд, д.8к1";"37.390677";"55.807096";"в центр";"Контроль база";"87482732";
487;"Комплекс фото-видеофиксации нарушений ПДД";"Нижегородская улица, д.86, корп.А";"37.71888";"55.731553";"из центра";"Скорость";"87482733";
488;"Комплекс фото-видеофиксации нарушений ПДД";"Нижняя Краснохолмская улица, напротив д.46-50, стр.1";"37.644963";"55.735414";"по Космодамианской наб.";"Скорость";"87482734";
489;"Комплекс фото-видеофиксации нарушений ПДД";"улица Николая Старостина - МКАД";"37.845896";"55.731229";"из центра";"Контроль база";"87482735";
490;"Комплекс фото-видеофиксации нарушений ПДД";"улица Николая Старостина - МКАД";"37.841611";"55.739593";"внутренняя сторона МКАД";"Контроль база";"87482736";
491;"Комплекс фото-видеофиксации нарушений ПДД";"Никулинская улица, напротив д.5, корп.1, по Востряковскому шоссе";"37.554347";"55.774358";"к Мичуринскому пр-ту";"Контроль база";"87482737";
492;"Комплекс фото-видеофиксации нарушений ПДД";"улица Новинки, д.13, а";"37.671464";"55.676633";"в центр";"Контроль база";"87482738";
493;"Комплекс фото-видеофиксации нарушений ПДД";"Новинский бульвар, д.15";"37.583532";"55.754415";"внутренняя сторона Садовое кольцо";"Скорость";"87482739";
494;"Комплекс фото-видеофиксации нарушений ПДД";"Новинский бульвар, д.18, стр.1";"37.583762";"55.754439";"внутренняя сторона Садовое кольцо";"Скорость";"87482740";
495;"Комплекс фото-видеофиксации нарушений ПДД";"Новоданиловская набережная, МГО № 002";"37.627225";"55.705841";"в центр";"Проезд грузового транспорта + скорость";"87482741";
496;"Комплекс фото-видеофиксации нарушений ПДД";"Новоданиловская набережная, напротив д.25 А, стр.6 по Варшавскому шоссе";"37.626567";"55.69422";"в центр";"Скорость";"87482742";
497;"Комплекс фото-видеофиксации нарушений ПДД";"Новодевичья набережная на пересечении с Новодевичьим пр-ом";"37.556311";"55.73005";"в центр";"Проезд грузового транспорта";"87482743";
498;"Комплекс фото-видеофиксации нарушений ПДД";"Новокуркинское шоссе, д.51";"37.389628";"55.908704";"от Машкинского ш.";"Скорость";"87482744";
499;"Комплекс фото-видеофиксации нарушений ПДД";"Новокуркинское шоссе, напротив д.51";"37.389956";"55.910454";"к Машкинскому ш.";"Скорость";"87482745";
500;"Комплекс фото-видеофиксации нарушений ПДД";"Новорогожская улица, напротив дома 27";"37.694636";"55.737986";"в центр";"Проезд грузового транспорта";"87482746";
501;"Комплекс фото-видеофиксации нарушений ПДД";"Новоспасский проезд, напротив д.9, стр.1 по улице Динамовская";"37.659906";"55.731581";"из центра";"Выделенная полоса";"87482747";
502;"Комплекс фото-видеофиксации нарушений ПДД";"Новосущёвская улица, д.19А";"37.604208";"55.791481";"в центр";"Проезд грузового транспорта";"87482748";
503;"Комплекс фото-видеофиксации нарушений ПДД";"Новоясеневский проспект, д.13, корп.1";"37.536168";"55.605475";"к Профсоюзной ул.";"Скорость";"87482749";
504;"Комплекс фото-видеофиксации нарушений ПДД";"Новоясеневский проспект, д.24";"37.529703";"55.606687";"от Профсоюзной ул.";"Скорость";"87482750";
505;"Комплекс фото-видеофиксации нарушений ПДД";"улица Новый Арбат, д.36/9";"37.577857";"55.752697";"из центра";"Скорость";"87482751";
506;"Комплекс фото-видеофиксации нарушений ПДД";"улица Образцова, д.29";"37.609688";"55.791776";"в центр";"Проезд грузового транспорта";"87482752";
507;"Комплекс фото-видеофиксации нарушений ПДД";"Озерная улица, напротив д.35, МГТ № 320";"37.452803";"55.668022";"из центра";"Выделенная полоса";"87482753";
508;"Комплекс фото-видеофиксации нарушений ПДД";"Озерная улица, напротив д.44";"37.446522";"55.667119";"в центр";"Выделенная полоса+скорость";"87482754";
509;"Комплекс фото-видеофиксации нарушений ПДД";"Октябрьская улица, напротив д.42";"37.613242";"55.792483";"в центр";"Проезд грузового транспорта";"87482755";
510;"Комплекс фото-видеофиксации нарушений ПДД";"Олимпийский проспект, напротив д.16, стр.1";"37.623104";"55.781168";"в центр";"Скорость";"87482756";
511;"Комплекс фото-видеофиксации нарушений ПДД";"Ольховская улица, д.49";"37.674885";"55.777927";"в центр";"Проезд грузового транспорта";"87482757";
512;"Комплекс фото-видеофиксации нарушений ПДД";"Онежская улица, д.36";"37.509528";"55.858916";"из центра";"Контроль база";"87482758";
513;"Комплекс фото-видеофиксации нарушений ПДД";"Ореховый бульвар, д.39, корп.1";"37.738594";"55.613709";"к Каширскому ш.";"Скорость";"87482759";
514;"Комплекс фото-видеофиксации нарушений ПДД";"Осташковское шоссе - МКАД";"37.668341";"55.895586";"внутренняя сторона МКАД";"Контроль база+скорость";"87482760";
515;"Комплекс фото-видеофиксации нарушений ПДД";"Осташковское шоссе - МКАД";"37.677883";"55.894881";"внутренняя сторона МКАД";"Контроль база+скорость";"87482761";
516;"Комплекс фото-видеофиксации нарушений ПДД";"Осташковское шоссе - МКАД";"37.672504";"55.898051";"из центра";"Контроль база+скорость";"87482762";
517;"Комплекс фото-видеофиксации нарушений ПДД";"Осташковское шоссе - МКАД Комплекс № 1";"37.673503";"55.893074";"в центр";"Контроль база";"87482763";
518;"Комплекс фото-видеофиксации нарушений ПДД";"Осташковское шоссе - МКАД Комплекс № 2";"37.672888";"55.893228";"в центр";"Контроль база";"87482764";
519;"Комплекс фото-видеофиксации нарушений ПДД";"Панфиловский проспект, корп.1011";"37.181366";"55.986198";"от Ленинградского ш.";"Скорость";"87482765";
520;"Комплекс фото-видеофиксации нарушений ПДД";"Панфиловский проспект, корп.1204";"37.191159";"55.996732";"к Ленинградскому ш.";"Скорость";"87482766";
521;"Комплекс фото-видеофиксации нарушений ПДД";"Панфиловский проспект, корп.22";"37.194678";"56.000931";"от Ленинградского ш.";"Скорость";"87482767";
522;"Комплекс фото-видеофиксации нарушений ПДД";"Панфиловский проспект, напротив, корп.1818а";"37.167926";"55.977987";"от Ленинградского ш.";"Скорость";"87482768";
523;"Комплекс фото-видеофиксации нарушений ПДД";"улица Паперника, напротив д.18";"37.671464";"55.676633";"от Рязанского пр-та";"Контроль база";"87482769";
524;"Комплекс фото-видеофиксации нарушений ПДД";"Первомайская улица, д.66";"37.797399";"55.793131";"из центра";"Скорость";"87482770";
525;"Комплекс фото-видеофиксации нарушений ПДД";"улица Подвойского, д.24, к Шмитовскому проезду";"37.537664";"55.764961";"в центр";"Проезд грузового транспорта";"87482771";
526;"Комплекс фото-видеофиксации нарушений ПДД";"улица Поляны - МКАД";"37.566808";"55.576779";"из центра";"Контроль база";"87482772";
527;"Комплекс фото-видеофиксации нарушений ПДД";"улица Поляны - МКАД";"37.57659";"55.579817";"внутренняя сторона МКАД";"Контроль база+скорость";"87482773";
528;"Комплекс фото-видеофиксации нарушений ПДД";"улица Поляны - МКАД";"37.567578";"55.582473";"внутренняя сторона МКАД";"Контроль база+скорость";"87482774";
529;"Комплекс фото-видеофиксации нарушений ПДД";"улица Поляны, д.7";"37.55074";"55.552259";"в центр";"Скорость";"87482775";
530;"Комплекс фото-видеофиксации нарушений ПДД";"улица Правды, д.26";"37.583764";"55.791072";"в центр";"Проезд грузового транспорта";"87482776";
531;"Комплекс фото-видеофиксации нарушений ПДД";"проезд 657, корп.1620";"37.156195";"55.970184";"от Каменка ул.";"Скорость";"87482777";
532;"Комплекс фото-видеофиксации нарушений ПДД";"проезд 657, напротив, корп.1650";"37.159519";"55.96994";"к Каменка ул.";"Скорость";"87482778";
533;"Комплекс фото-видеофиксации нарушений ПДД";"Проектируемый проезд № 5175 - МКАД";"37.825412";"55.644042";"внутренняя сторона МКАД";"Контроль база+скорость";"87482779";
534;"Комплекс фото-видеофиксации нарушений ПДД";"Проектируемый проезд № 5175 - МКАД";"37.815579";"55.638364";"внутренняя сторона МКАД";"Контроль база+скорость";"87482780";
535;"Комплекс фото-видеофиксации нарушений ПДД";"Проектируемый проезд № 5175-МКАД";"37.815594";"55.641013";"в центр";"Контроль база";"87482781";
536;"Комплекс фото-видеофиксации нарушений ПДД";"Проектируемый проезд № 5175-МКАД";"37.824735";"55.638961";"из центра";"Контроль база";"87482782";
537;"Комплекс фото-видеофиксации нарушений ПДД";"Проектируемый проезд № 5396 напротив д.16, корп.6 по улице Борисовские пруды";"37.7506";"55.632208";"из центра";"Выделенная полоса";"87482783";
538;"Комплекс фото-видеофиксации нарушений ПДД";"Проектируемый проезд № 5396 напротив д.21, корп.2 по Братеевской улице";"37.750408";"55.633486";"в центр";"Выделенная полоса";"87482784";
539;"Комплекс фото-видеофиксации нарушений ПДД";"Проектируемый проезд № 5396, напротив д.16, корп.2 по улице Борисовские пруды";"37.749219";"55.635867";"из центра";"Выделенная полоса";"87482785";
540;"Комплекс фото-видеофиксации нарушений ПДД";"Проектируемый проезд № 5396-МКАД";"37.77186";"55.619359";"в центр";"Контроль база";"87482786";
541;"Комплекс фото-видеофиксации нарушений ПДД";"Проектируемый проезд № 5396-МКАД";"37.786702";"55.616987";"из центра";"Контроль база";"87482787";
542;"Комплекс фото-видеофиксации нарушений ПДД";"Проектируемый проезд № 5396-МКАД";"37.785494";"55.61934";"внутренняя сторона МКАД";"Контроль база+скорость";"87482788";
543;"Комплекс фото-видеофиксации нарушений ПДД";"Проектируемый проезд № 5396-МКАД";"37.765567";"55.608735";"внутренняя сторона МКАД";"Контроль база+скорость";"87482789";
544;"Комплекс фото-видеофиксации нарушений ПДД";"Пролетарский проспект, д.39";"37.660133";"55.632353";"в центр";"Выделенная полоса";"87482790";
545;"Комплекс фото-видеофиксации нарушений ПДД";"Пролетарский проспект, напротив д.19, корп.1";"37.655339";"55.64146";"из центра";"Выделенная полоса";"87482791";
546;"Комплекс фото-видеофиксации нарушений ПДД";"Профсоюзная улица - МКАД";"37.494588";"55.612508";"в центр";"Контроль база";"87482792";
547;"Комплекс фото-видеофиксации нарушений ПДД";"Профсоюзная улица - МКАД";"37.488009";"55.614938";"внутренняя сторона МКАД";"Контроль база+скорость";"87482793";
548;"Комплекс фото-видеофиксации нарушений ПДД";"Профсоюзная улица - МКАД";"37.487687";"55.608173";"из центра";"Контроль база+скорость";"87482794";
549;"Комплекс фото-видеофиксации нарушений ПДД";"Профсоюзная улица - МКАД № 1";"37.496012";"55.6081";"внутренняя сторона МКАД";"Контроль база+скорость";"87482795";
550;"Комплекс фото-видеофиксации нарушений ПДД";"Профсоюзная улица - МКАД № 2";"37.492772";"55.609242";"внутренняя сторона МКАД";"Контроль база+скорость";"87482796";
551;"Комплекс фото-видеофиксации нарушений ПДД";"Профсоюзная улица, д.102, стр.1";"37.520234";"55.633799";"из центра";"Выделенная полоса";"87482797";
552;"Комплекс фото-видеофиксации нарушений ПДД";"Профсоюзная улица, д.24, корп.1";"37.564533";"55.679333";"из центра";"Выделенная полоса";"87482798";
553;"Комплекс фото-видеофиксации нарушений ПДД";"Профсоюзная улица, д.36, корп.1";"37.560405";"55.675866";"из центра";"Выделенная полоса";"87482799";
554;"Комплекс фото-видеофиксации нарушений ПДД";"Профсоюзная улица, д.49, корп.1";"37.550144";"55.665872";"в центр";"Выделенная полоса";"87482800";
555;"Комплекс фото-видеофиксации нарушений ПДД";"Профсоюзная улица, д.54";"37.555867";"55.671611";"из центра";"Выделенная полоса";"87482801";
556;"Комплекс фото-видеофиксации нарушений ПДД";"Профсоюзная улица, д.60, корп.2";"37.551781";"55.667718";"из центра";"Выделенная полоса";"87482802";
557;"Комплекс фото-видеофиксации нарушений ПДД";"Профсоюзная улица, д.77";"37.530931";"55.647875";"в центр";"Выделенная полоса";"87482803";
558;"Комплекс фото-видеофиксации нарушений ПДД";"Профсоюзная улица, д.85, корп.1";"37.527454";"55.644097";"в центр";"Выделенная полоса";"87482804";
559;"Комплекс фото-видеофиксации нарушений ПДД";"Профсоюзная улица, д.8к1";"37.571372";"55.685958";"из центра";"Выделенная полоса";"87482805";
560;"Комплекс фото-видеофиксации нарушений ПДД";"Профсоюзная улица, д.93 А";"37.524783";"55.640042";"в центр";"Выделенная полоса";"87482806";
561;"Комплекс фото-видеофиксации нарушений ПДД";"Профсоюзная улица, д.99";"37.522433";"55.636894";"в центр";"Выделенная полоса";"87482807";
562;"Комплекс фото-видеофиксации нарушений ПДД";"Профсоюзная улица, МГТ № 180";"37.5306";"55.648034";"из центра";"Выделенная полоса";"87482808";
563;"Комплекс фото-видеофиксации нарушений ПДД";"Профсоюзная улица, МГТ № 305";"37.520464";"55.634586";"в центр";"Выделенная полоса";"87482809";
564;"Комплекс фото-видеофиксации нарушений ПДД";"Профсоюзная улица, напротив д.30, корп.1";"37.563378";"55.678256";"в центр";"Выделенная полоса";"87482810";
565;"Комплекс фото-видеофиксации нарушений ПДД";"Пятницкое шоссе, д.16";"37.383992";"55.842606";"из центра";"Выделенная полоса+скорость";"87482811";
566;"Комплекс фото-видеофиксации нарушений ПДД";"Пятницкое шоссе, д.19, корп.1";"37.377519";"55.845119";"в центр";"Выделенная полоса+скорость";"87482812";
567;"Комплекс фото-видеофиксации нарушений ПДД";"Пятницкое шоссе, д.31";"37.36395";"55.851814";"в центр";"Выделенная полоса+скорость";"87482813";
568;"Комплекс фото-видеофиксации нарушений ПДД";"Пятницкое шоссе, д.32";"37.365072";"55.851597";"из центра";"Выделенная полоса+скорость";"87482814";
569;"Комплекс фото-видеофиксации нарушений ПДД";"Пятницкое шоссе, д.35";"37.361233";"55.853139";"в центр";"Выделенная полоса";"87482815";
570;"Комплекс фото-видеофиксации нарушений ПДД";"Пятницкое шоссе, д.6";"37.38775";"55.836769";"из центра";"Скорость";"87482816";
571;"Комплекс фото-видеофиксации нарушений ПДД";"Пятницкое шоссе, напортив д.2";"37.387689";"55.834729";"в центр";"Скорость";"87482817";
572;"Комплекс фото-видеофиксации нарушений ПДД";"Радиоулица, д.23/9";"37.684233";"55.762642";"в центр";"Проезд грузового транспорта";"87482818";
573;"Комплекс фото-видеофиксации нарушений ПДД";"улица Римского - Корсакова, у д.40, по Алтуфьевскому шоссе";"37.590683";"55.870192";"в центр";"Контроль база";"87482819";
574;"Комплекс фото-видеофиксации нарушений ПДД";"Рублево-Успенское шоссе - МКАД";"37.369194";"55.761452";"внутренняя сторона МКАД";"Контроль база+скорость";"87482820";
575;"Комплекс фото-видеофиксации нарушений ПДД";"Рублево-Успенское шоссе - МКАД";"37.36956";"55.773031";"внутренняя сторона МКАД";"Контроль база+скорость";"87482821";
576;"Комплекс фото-видеофиксации нарушений ПДД";"Рублево-Успенское шоссе - МКАД";"37.368159";"55.766431";"из центра";"Контроль база (комплекс №1)";"87482822";
577;"Комплекс фото-видеофиксации нарушений ПДД";"Рублево-Успенское шоссе - МКАД";"37.368222";"55.764756";"из центра";"Контроль база (комплекс №2)";"87482823";
578;"Комплекс фото-видеофиксации нарушений ПДД";"Рублевское шоссе - МКАД";"37.3839";"55.763155";"в центр";"Контроль база";"87482824";
579;"Комплекс фото-видеофиксации нарушений ПДД";"Рублевское шоссе - МКАД";"37.365016";"55.772065";"из центра";"Контроль база";"87482825";
580;"Комплекс фото-видеофиксации нарушений ПДД";"Русаковская набережная, напротив д.27 по улице Стромынка";"37.702804";"55.795497";"в центр";"Скорость";"87482826";
581;"Комплекс фото-видеофиксации нарушений ПДД";"улица Руставели, у д.9/11 по улице Добролюбова";"37.592621";"55.812983";"к Дмитровскому ш.";"Контроль база";"87482827";
582;"Комплекс фото-видеофиксации нарушений ПДД";"Рябиновая улица - МКАД";"37.42979";"55.66932";"в центр";"Контроль база";"87482828";
583;"Комплекс фото-видеофиксации нарушений ПДД";"Рябиновая улица - МКАД";"37.423061";"55.674652";"внутренняя сторона МКАД";"Контроль база+скорость";"87482829";
584;"Комплекс фото-видеофиксации нарушений ПДД";"Рябиновая улица - МКАД";"37.430358";"55.669581";"из центра";"Контроль база";"87482830";
585;"Комплекс фото-видеофиксации нарушений ПДД";"Рязанский проспект - МКАД";"37.840459";"55.706304";"из центра";"Контроль база";"87482831";
586;"Комплекс фото-видеофиксации нарушений ПДД";"Рязанский проспект - МКАД";"37.836644";"55.710733";"внутренняя сторона МКАД";"Контроль база+скорость";"87482832";
587;"Комплекс фото-видеофиксации нарушений ПДД";"Рязанский проспект - МКАД";"37.833126";"55.70512";"внутренняя сторона МКАД";"Контроль база+скорость";"87482833";
588;"Комплекс фото-видеофиксации нарушений ПДД";"Рязанский проспект - МКАД";"37.829157";"55.708949";"в центр";"Контроль база";"87482834";
589;"Комплекс фото-видеофиксации нарушений ПДД";"Рязанский проспект, д.91, корп.1";"37.804296";"55.715428";"в центр";"Скорость";"87482835";
590;"Комплекс фото-видеофиксации нарушений ПДД";"Рязанский проспект., д.10, стр.1";"37.757536";"55.726902";"из центра";"Скорость";"87482836";
591;"Комплекс фото-видеофиксации нарушений ПДД";"Рязанский проспект., д.2, по 2-му Карачаровскому проезду";"37.753738";"55.728289";"в центр";"Скорость";"87482837";
592;"Комплекс фото-видеофиксации нарушений ПДД";"Саввинская набережная, напротив д.12, стр.8 по Большому Саввинскому переулку";"37.560217";"55.732584";"из центра";"Скорость";"87482838";
593;"Комплекс фото-видеофиксации нарушений ПДД";"Садовая-Кудринская улица, д.9, стр.1";"37.586545";"55.762053";"внутренняя сторона Садовое кольцо";"Скорость";"87482839";
594;"Комплекс фото-видеофиксации нарушений ПДД";"Садовая-Спасская улица, д.6, стр.1";"37.639584";"55.771422";"внутренняя сторона Садовое кольцо";"Скорость";"87482840";
595;"Комплекс фото-видеофиксации нарушений ПДД";"Садовое кольцо, внутр., Самотечная эстакада, Садовая-Сухаревская улица, д.4";"37.622714";"55.773583";"внутренняя сторона Садовое кольцо";"Скорость";"87482841";
596;"Комплекс фото-видеофиксации нарушений ПДД";"улица Саломеи Нерис - МКАД";"37.388465";"55.851508";"из центра";"Контроль база";"87482842";
597;"Комплекс фото-видеофиксации нарушений ПДД";"улица Саломеи Нерис - МКАД";"37.391549";"55.847855";"внутренняя сторона МКАД";"Контроль база";"87482843";
598;"Комплекс фото-видеофиксации нарушений ПДД";"улица Саломеи Нерис - МКАД напротив д.6, корп.2";"37.433094";"55.874879";"в центр";"Контроль база";"87482844";
599;"Комплекс фото-видеофиксации нарушений ПДД";"улица Саломеи Нерис - МКАД Путилковское шоссе";"37.388465";"55.851508";"из центра";"Контроль база";"87482845";
600;"Комплекс фото-видеофиксации нарушений ПДД";"Свободный проспект, д.16 А";"37.817559";"55.753322";"к Зеленому пр-ту";"Скорость";"87482846";
601;"Комплекс фото-видеофиксации нарушений ПДД";"Свободный проспект, напротив д.37/18";"37.815679";"55.749279";"к Вешняковской ул.";"Скорость";"87482847";
602;"Комплекс фото-видеофиксации нарушений ПДД";"улица Свободы - МКАД";"37.433094";"55.874879";"в центр";"Контроль база";"87482848";
603;"Комплекс фото-видеофиксации нарушений ПДД";"улица Свободы - МКАД";"37.43426";"55.878274";"внутренняя сторона МКАД";"Контроль база+скорость";"87482849";
604;"Комплекс фото-видеофиксации нарушений ПДД";"улица Свободы - МКАД";"37.422414";"55.878753";"из центра";"Контроль база+скорость";"87482850";
605;"Комплекс фото-видеофиксации нарушений ПДД";"улица Свободы, д.63";"37.451456";"55.854717";"в центр";"Скорость";"87482851";
606;"Комплекс фото-видеофиксации нарушений ПДД";"улица Свободы, д.93, корп.1, МГО № 261";"37.444914";"55.868874";"в центр";"Скорость";"87482852";
607;"Комплекс фото-видеофиксации нарушений ПДД";"улица Свободы, напротив д.63";"37.450383";"55.854669";"из центра";"Скорость";"87482853";
608;"Комплекс фото-видеофиксации нарушений ПДД";"Севастопольский проспект  д.29";"37.592128";"55.676042";"в центр";"Выделенная полоса";"87482854";
609;"Комплекс фото-видеофиксации нарушений ПДД";"Севастопольский проспект, д.24, корп.22";"37.591881";"55.676047";"из центра";"Выделенная полоса";"87482855";
610;"Комплекс фото-видеофиксации нарушений ПДД";"Севастопольский проспект, д.53";"37.581533";"55.665956";"в центр";"Выделенная полоса";"87482856";
611;"Комплекс фото-видеофиксации нарушений ПДД";"Севастопольский проспект, д.63/20";"37.575856";"55.660889";"в центр";"Выделенная полоса";"87482857";
612;"Комплекс фото-видеофиксации нарушений ПДД";"Севастопольский проспект, д.66, МГТ № 292";"37.5408";"55.627153";"из центра";"Выделенная полоса";"87482858";
613;"Комплекс фото-видеофиксации нарушений ПДД";"Севастопольский проспект, МГТ № 178";"37.555603";"55.642939";"из центра";"Скорость";"87482859";
614;"Комплекс фото-видеофиксации нарушений ПДД";"Севастопольский проспект, МГТ № 307";"37.542333";"55.624117";"в центр";"Выделенная полоса";"87482860";
615;"Комплекс фото-видеофиксации нарушений ПДД";"Севастопольский проспект, напротив д.22 по  Перекопской улице";"37.575008";"55.660403";"из центра";"Выделенная полоса";"87482861";
616;"Комплекс фото-видеофиксации нарушений ПДД";"Севастопольский проспект, напротив д.54";"37.559692";"55.644447";"в центр";"Скорость";"87482862";
617;"Комплекс фото-видеофиксации нарушений ПДД";"Севастопольский проспект, напротив д.58";"37.550047";"55.641102";"в центр";"Выделенная полоса";"87482863";
618;"Комплекс фото-видеофиксации нарушений ПДД";"улица Серпуховский Вал, д.13";"37.614081";"55.711293";"к Серпуховской заставы пл.";"Контроль база";"87482864";
619;"Комплекс фото-видеофиксации нарушений ПДД";"улица Серпуховский Вал, д.16/25";"37.613555";"55.711742";"от Серпуховской заставы пл.";"Контроль база";"87482865";
620;"Комплекс фото-видеофиксации нарушений ПДД";"улица Симоновский Вал, д.11/31, корп.1";"37.663661";"55.724758";"в центр";"Выделенная полоса";"87482866";
621;"Комплекс фото-видеофиксации нарушений ПДД";"улица Симоновский Вал, д.19";"37.663829";"55.720654";"в центр";"Выделенная полоса";"87482867";
622;"Комплекс фото-видеофиксации нарушений ПДД";"Сколковское шоссе - МКАД";"37.400964";"55.70359";"в центр";"Контроль база";"87482868";
623;"Комплекс фото-видеофиксации нарушений ПДД";"Сколковское шоссе - МКАД";"37.402625";"55.699019";"внутренняя сторона МКАД";"Контроль база";"87482869";
624;"Комплекс фото-видеофиксации нарушений ПДД";"Сколковское шоссе - МКАД";"37.397255";"55.700679";"из центра";"Контроль база";"87482870";
625;"Комплекс фото-видеофиксации нарушений ПДД";"Сколковское шоссе - МКАД";"37.395229";"55.704978";"внутренняя сторона МКАД";"Контроль база";"87482871";
626;"Комплекс фото-видеофиксации нарушений ПДД";"Слободской переулок, напротив д.8/3";"37.682226";"55.757124";"в центр";"Проезд грузового транспорта";"87482872";
627;"Комплекс фото-видеофиксации нарушений ПДД";"Сосновая аллея, корп.601";"37.225646";"55.988832";"к Московскому пр-ту";"Скорость";"87482873";
628;"Комплекс фото-видеофиксации нарушений ПДД";"Сосновая аллея, напротив, корп.607";"37.229392";"55.98832";"к Озерной аллее";"Скорость";"87482874";
629;"Комплекс фото-видеофиксации нарушений ПДД";"Ставропольская улица, напротив д.70";"37.773098";"55.682055";"к Тихорецкому б-ру";"Контроль база";"87482875";
630;"Комплекс фото-видеофиксации нарушений ПДД";"улица Сталеваров - МКАД";"37.84151";"55.7675";"в центр";"Контроль база";"87482876";
631;"Комплекс фото-видеофиксации нарушений ПДД";"улица Сталеваров - МКАД";"37.842796";"55.766385";"внутренняя сторона МКАД";"Контроль база";"87482877";
632;"Комплекс фото-видеофиксации нарушений ПДД";"улица Сталеваров - МКАД";"37.842815";"55.773981";"внутренняя сторона МКАД";"Контроль база";"87482878";
633;"Комплекс фото-видеофиксации нарушений ПДД";"улица Сталеваров - МКАД";"37.846742";"55.767768";"из центра";"Контроль база";"87482879";
634;"Комплекс фото-видеофиксации нарушений ПДД";"Стартовая улица, напротив д.35";"37.688322";"55.886587";"в центр";"Контроль база";"87482880";
635;"Комплекс фото-видеофиксации нарушений ПДД";"Стрельбищенский переулок, д.27";"37.540772";"55.764672";"в центр";"Проезд грузового транспорта";"87482881";
636;"Комплекс фото-видеофиксации нарушений ПДД";"Строгинское шоссе, напротив д.33 по улице Исаковского";"37.420064";"55.804236";"в центр";"Скорость";"87482882";
637;"Комплекс фото-видеофиксации нарушений ПДД";"Строгинское шоссе, опора МГО № 109";"37.434307";"55.80454";"в центр";"Скорость";"87482883";
638;"Комплекс фото-видеофиксации нарушений ПДД";"Строгинское шоссе, опора МГО № 120";"37.432194";"55.804564";"из центра";"Скорость";"87482884";
639;"Комплекс фото-видеофиксации нарушений ПДД";"Строгинское шоссе, опора МГО № 61";"37.448928";"55.805153";"в центр";"Скорость";"87482885";
640;"Комплекс фото-видеофиксации нарушений ПДД";"Строгинское шоссе, опора МГО № 64";"37.448424";"55.805473";"из центра";"Скорость";"87482886";
641;"Комплекс фото-видеофиксации нарушений ПДД";"Строгинское шоссе, у д.33, корп.6, по улице Исаковского";"37.422387";"55.804151";"из центра";"Скорость";"87482887";
642;"Комплекс фото-видеофиксации нарушений ПДД";"улица Стромынка, д.20";"37.701164";"55.794597";"из центра";"Скорость";"87482888";
643;"Комплекс фото-видеофиксации нарушений ПДД";"улица Стромынка, д.27";"37.701036";"55.794722";"в центр";"Скорость";"87482889";
644;"Комплекс фото-видеофиксации нарушений ПДД";"улица Стромынка, у д.1 по улице Барболина";"37.683049";"55.789968";"из центра";"Контроль база";"87482890";
645;"Комплекс фото-видеофиксации нарушений ПДД";"Суворовская площадь, д.2, стр.1";"37.616179";"55.781883";"из центра";"Контроль база";"87482891";
646;"Комплекс фото-видеофиксации нарушений ПДД";"Таллинская улица - МКАД";"37.386609";"55.801202";"в центр";"Контроль база";"87482892";
647;"Комплекс фото-видеофиксации нарушений ПДД";"Тихвинская улица, напротив д.39";"37.599668";"55.791236";"в центр";"Проезд грузового транспорта";"87482893";
648;"Комплекс фото-видеофиксации нарушений ПДД";"Трикотажный проезд - МКАД";"37.401164";"55.833303";"в центр";"Контроль база+скорость";"87482894";
649;"Комплекс фото-видеофиксации нарушений ПДД";"Трикотажный проезд - МКАД";"37.391249";"55.83416";"из центра";"Контроль база+скорость";"87482895";
650;"Комплекс фото-видеофиксации нарушений ПДД";"Трикотажный проезд - МКАД";"37.395498";"55.834389";"внутренняя сторона МКАД";"Контроль база+скорость";"87482896";
651;"Комплекс фото-видеофиксации нарушений ПДД";"Трикотажный проезд - МКАД";"37.395905";"55.83793";"внутренняя сторона МКАД";"Контроль база+скорость";"87482897";
652;"Комплекс фото-видеофиксации нарушений ПДД";"Троекуровский проезд - МКАД";"37.40591";"55.699099";"в центр";"Контроль база";"87482898";
653;"Комплекс фото-видеофиксации нарушений ПДД";"Троекуровский проезд - МКАД";"37.402625";"55.699019";"внутренняя сторона МКАД";"Контроль база";"87482899";
654;"Комплекс фото-видеофиксации нарушений ПДД";"улица Удальцова, д.79";"37.499219";"55.679632";"к Вернадского пр-ту";"Контроль база";"87482900";
655;"Комплекс фото-видеофиксации нарушений ПДД";"улица Фридриха Энгельса, д.25";"37.684192";"55.773397";"в центр";"Проезд грузового транспорта";"87482901";
656;"Комплекс фото-видеофиксации нарушений ПДД";"Фрунзенская набережная, напротив д.32";"37.588376";"55.723842";"в центр";"Скорость";"87482902";
657;"Комплекс фото-видеофиксации нарушений ПДД";"Фрунзенская набережная, напротив д.48";"37.580542";"55.717164";"в центр";"Проезд грузового транспорта";"87482903";
658;"Комплекс фото-видеофиксации нарушений ПДД";"Хабаровская улица - МКАД";"37.823313";"55.832479";"внутренняя сторона МКАД";"Контроль база+скорость";"87482904";
659;"Комплекс фото-видеофиксации нарушений ПДД";"Хабаровская улица - МКАД";"37.831507";"55.827438";"внутренняя сторона МКАД";"Контроль база+скорость";"87482905";
660;"Комплекс фото-видеофиксации нарушений ПДД";"Хабаровская улица - МКАД";"37.830499";"55.830643";"из центра";"Контроль база+скорость";"87482906";
661;"Комплекс фото-видеофиксации нарушений ПДД";"Хабаровская улица - МКАД";"37.82483";"55.829377";"в центр";"Контроль база";"87482907";
662;"Комплекс фото-видеофиксации нарушений ПДД";"улица Хамовнический Вал, д.28";"37.565253";"55.719992";"к Лужнецкому пр-ду";"Проезд грузового транспорта";"87482908";
663;"Комплекс фото-видеофиксации нарушений ПДД";"улица Хамовнический Вал, МГО № 70";"37.560338";"55.721525";"к Лужнецкому пр-ду";"Скорость";"87482909";
664;"Комплекс фото-видеофиксации нарушений ПДД";"улица Хамовнический Вал, напротив д.32";"37.564165";"55.720142";"к Комсомольскому пр-ту";"Скорость";"87482910";
665;"Комплекс фото-видеофиксации нарушений ПДД";"улица Хачатуряна, д.3";"37.586952";"55.856929";"к Алтуфьевскому ш.";"Контроль база";"87482911";
666;"Комплекс фото-видеофиксации нарушений ПДД";"Хорошёвское шоссе, д.1, стр.2, по улице Зорге";"37.513271";"55.777758";"из центра";"Контроль база";"87482912";
667;"Комплекс фото-видеофиксации нарушений ПДД";"Хорошёвское шоссе, д.86";"37.518622";"55.777448";"из центра";"Скорость";"87482913";
668;"Комплекс фото-видеофиксации нарушений ПДД";"Чертановская улица, д.39, корп.1";"37.59107";"55.609602";"в центр";"Скорость";"87482914";
669;"Комплекс фото-видеофиксации нарушений ПДД";"Чертановская улица, д.44";"37.590641";"55.609287";"из центра";"Скорость";"87482915";
670;"Комплекс фото-видеофиксации нарушений ПДД";"Чечёрский проезд, д.22";"37.543212";"55.53847";"из центра";"Скорость";"87482916";
671;"Комплекс фото-видеофиксации нарушений ПДД";"Шлюзовая набережная, д.8";"37.648041";"55.731098";"из центра";"Контроль база";"87482917";
672;"Комплекс фото-видеофиксации нарушений ПДД";"Шмитовский проезд, д.26";"37.539283";"55.756023";"из центра";"Контроль база";"87482918";
673;"Комплекс фото-видеофиксации нарушений ПДД";"Щелковское шоссе - МКАД";"37.831842";"55.813346";"в центр";"Контроль база+скорость";"87482919";
674;"Комплекс фото-видеофиксации нарушений ПДД";"Щелковское шоссе - МКАД";"37.838376";"55.81847";"внутренняя сторона МКАД";"Контроль база+скорость";"87482920";
675;"Комплекс фото-видеофиксации нарушений ПДД";"Щелковское шоссе - МКАД";"37.839057";"55.808963";"внутренняя сторона МКАД";"Контроль база+скорость";"87482921";
676;"Комплекс фото-видеофиксации нарушений ПДД";"Щелковское шоссе - МКАД, № 1";"37.839789";"55.813958";"из центра";"Контроль база+скорость";"87482922";
677;"Комплекс фото-видеофиксации нарушений ПДД";"Щелковское шоссе - МКАД, № 2";"37.841677";"55.813285";"из центра";"Контроль база+скорость";"87482923";
678;"Комплекс фото-видеофиксации нарушений ПДД";"Щёлковское шоссе, д.23";"37.772933";"55.808033";"в центр";"Выделенная полоса";"87482924";
679;"Комплекс фото-видеофиксации нарушений ПДД";"Щёлковское шоссе, д.24";"37.774983";"55.808169";"из центра";"Выделенная полоса";"87482925";
680;"Комплекс фото-видеофиксации нарушений ПДД";"Щёлковское шоссе, д.25/15";"37.776958";"55.809089";"в центр";"Выделенная полоса";"87482926";
681;"Комплекс фото-видеофиксации нарушений ПДД";"Щёлковское шоссе, д.68";"37.807489";"55.810328";"из центра";"Скорость";"87482927";
682;"Комплекс фото-видеофиксации нарушений ПДД";"Щёлковское шоссе, д.79, корп.1";"37.806867";"55.810603";"в центр";"Выделенная полоса";"87482928";
683;"Комплекс фото-видеофиксации нарушений ПДД";"Щёлковское шоссе, д.90";"37.821508";"55.812047";"из центра";"Выделенная полоса";"87482929";
684;"Комплекс фото-видеофиксации нарушений ПДД";"бульвар Энтузиастов, опора МГТ № 12";"37.684297";"55.746786";"из центра";"Выделенная полоса";"87482930";
685;"Комплекс фото-видеофиксации нарушений ПДД";"бульвар Энтузиастов, опора МГТ № 15";"37.682239";"55.746736";"в центр";"Выделенная полоса";"87482931";
686;"Комплекс фото-видеофиксации нарушений ПДД";"шоссе Энтузиастов - МКАД";"37.836025";"55.775451";"в центр";"Контроль база";"87482932";
687;"Комплекс фото-видеофиксации нарушений ПДД";"шоссе Энтузиастов - МКАД";"37.842794";"55.772974";"внутренняя сторона МКАД";"Контроль база";"87482933";
688;"Комплекс фото-видеофиксации нарушений ПДД";"шоссе Энтузиастов - МКАД";"37.841465";"55.778761";"из центра";"Контроль база";"87482934";
689;"Комплекс фото-видеофиксации нарушений ПДД";"шоссе Энтузиастов, д 7 А, у съезда с путепровода";"37.706928";"55.749572";"в центр";"Выделенная полоса";"87482935";
690;"Комплекс фото-видеофиксации нарушений ПДД";"шоссе Энтузиастов, д.14";"37.709789";"55.749994";"из центра";"Выделенная полоса";"87482936";
691;"Комплекс фото-видеофиксации нарушений ПДД";"Южнобутовская улица, д.80";"37.518125";"55.5343";"из центра";"Скорость";"87482937";
692;"Комплекс фото-видеофиксации нарушений ПДД";"улица Юности, опора МГО № 13";"37.814217";"55.735606";"от Вешняковской ул.";"Контроль база";"87482938";
693;"Комплекс фото-видеофиксации нарушений ПДД";"улица Юных Ленинцев, д.32";"37.755653";"55.700989";"к Маршала Чуйкова ул.";"Скорость";"87482939";
694;"Комплекс фото-видеофиксации нарушений ПДД";"Юрловский проезд, д.17";"37.617355";"55.872016";"к северному б-ру";"Контроль база";"87482940";
695;"Комплекс фото-видеофиксации нарушений ПДД";"улица Большая Якиманка, д.46, стр.1";"37.612064";"55.732149";"из центра";"Скорость";"87482941";
696;"Комплекс фото-видеофиксации нарушений ПДД";"Ярославское шоссе - МКАД";"37.710213";"55.890369";"внутренняя сторона МКАД";"Контроль база+скорость";"87482942";
697;"Комплекс фото-видеофиксации нарушений ПДД";"Ярославское шоссе - МКАД";"37.733311";"55.878487";"внутренняя сторона МКАД";"Контроль база+скорость";"87482943";
698;"Комплекс фото-видеофиксации нарушений ПДД";"Ярославское шоссе - МКАД";"37.733311";"55.878487";"внутренняя сторона МКАД";"Контроль база+скорость";"87482944";
699;"Комплекс фото-видеофиксации нарушений ПДД";"Ярославское шоссе - МКАД, Комплекс № 1";"37.721458";"55.878986";"в центр";"Контроль база";"87482945";
700;"Комплекс фото-видеофиксации нарушений ПДД";"Ярославское шоссе - МКАД, Комплекс № 2";"37.722831";"55.880385";"в центр";"Контроль база";"87482946";
701;"Комплекс фото-видеофиксации нарушений ПДД";"Авиамоторная улица, д.36/7";"37.721386";"55.742482";"к Нижегородской улице";"Контроль база";"87482403";
702;"Комплекс фото-видеофиксации нарушений ПДД";"Гончарный проезд, д.14, стр.2";"37.649185";"55.73806";"по Народной улице";"Скорость";"87482548";
